name,formatted_address,latitude,longitude
ENDESA Charging Station,"Calle José Saramago, 29660 Marbella, Málaga",36.4891,-4.9531
Tesla Destination Charger,"Calle Las Violetas, 4, 29660 Marbella, Málaga",36.48981320000001,-4.961653500000001
be.ENERGISED Charging Station,42 Calle Ribera Marbella 29660 ES,36.48600020000001,-4.9544023
Tesla Destination Charger,"Plaza de Cibeles, s/n, 29660 Marbella, Málaga",36.509707,-4.979749
Tesla Destination Charger,"Plaza Andalucía, s/n, 23400 Úbeda, Jaén",38.0109412,-3.3718719
Tesla Destination Charger,"Hotel Benabola, 3 Calle Benabola, Calle Benabola, 29660 Marbella, Málaga",36.485294,-4.9549059999999985
ENDESA Charging Station,"Calle Ramón Areces, s/n, 29660 Marbella, Málaga",36.489937,-4.952054
ENDESA Charging Station,"Andalucía Plaza, 4, 18196 Sierra Nevada, Granada",37.09317,-3.3993290000000003
GiC - Gestion Inteligente de Cargas Charging Station,"3 Av. Molini Cirve, 41012",37.379102,-6.001195999999998
ENDESA Charging Station,"Av. de Andalucía, 204, 28341 Valdemoro, Madrid",40.21,-3.681
Tesla Destination Charger,"Av de Sor Teresa Prat, 11, 29003 Málaga",36.7003502,-4.4391644999999995
EasyCharger Estación de carga,"06200 Almendralejo, Badajoz",38.7099152,-6.400288700000001
Iberdrola Charging Station,"Calle Andalucía, 169, 34004 Palencia",41.990766,-4.511121
Iberdrola Clientes Charging Station,"Calle Betis, 41010 Sevilla",37.385515999999996,-6.002879
Iberdrola Clientes Charging Station,"Av. de Velázquez, 389, 29004 Málaga",36.658543,-4.4827249999999985
Iberdrola Clientes Charging Station,"Calle Sócrates, 0, 18002 Granada",37.176527,-3.6051019999999996
Tesla Supercharger,"Calle Cordoba, 15, 41550 Aguadulce, Sevilla",37.256868299999994,-4.986181299999999
Tesla Supercharger,"Carretera N-iv K-173,100, 29, 13200 Manzanares, Cdad. Real",39.0063666,-3.3832406
Iberdrola Estación de carga,30008 Murcia,37.992965500000004,-1.1303944
Concesionario Renault Japemasa,"Avenida Andalucía, S/N, 18015 Granada",37.198289,-3.6367910000000006
ESTACION ADIF,"SE-766, 41590 La Roda de Andalucía, Sevilla",37.2093876,-4.7750433
Iberdrola Clientes Charging Station,41400 Sevilla,37.3868593,-5.999740099999999
Andalucia Tech,29010 Málaga,36.7187625,-4.49456
Estación Naturgy Sevilla-Tussam,"Av. de Andalucía, 11, 41007 Sevilla",37.3871876,-5.9458237
Camping El Sur,"Carretera Ronda-Algeciras, Km 1.5, 29400 Ronda, Málaga",36.7209434,-5.1724185999999985
Princesa - Huelin,29003 Málaga,36.704313899999995,-4.4401361
Andalucía Tech,29010 Málaga,36.7188333,-4.4943306
Estacíon de Ronda Adif,"Av. Andalucía, 31, 29400 Ronda, Málaga",36.7484192,-5.161958400000001
Estación Naturgy Granada,"Avenida de Andalucía, s/n BO PP-I5 Fatinafar I, 18015 Granada",37.197532700000004,-3.6412093
Estación de servicio Cepsa,"Virgen Del Carmen, 1, 41420 Fuentes de Andalucía, Sevilla",37.464864,-5.342735999999999
Lugenergy Estación de carga,"Av. de los Hermanos Machado, 137, 46025 Valencia",39.4978749,-0.3826875
Estación de Servicio Repsol,"N-334, 124,8 IZ, 41590 La Roda de Andalucía, Sevilla",37.2144208,-4.777266300000001
Estación de Servicio Repsol,"Av. de Andalucía, 169, D, 29740 Torre del Mar, Málaga",36.7372871,-4.1018186000000005
Estación de Servicio Repsol,"Av. de Andalucía, S.N, D, 23680 Alcalá la Real, Jaén",37.4506807,-3.9208746
Apartamentos Maier,"Calle San Nicolás, 4, 11002 Cádiz",36.52945,-6.301842
Puerta Blanca,"Av. de Velázquez, 103, 29004 Málaga",36.6915103,-4.455984700000001
Estación de Autobuses de Jerez De La Frontera,"11401 Jerez de la Frontera, Cádiz",36.6795451,-6.126471
El Torcal,29003 Málaga,36.699737299999995,-4.4460788
Easycharger Estación de carga,"Calle Obispo Nicolás Castellanos, 1, Entreplanta C Izquierda, 34001 Palencia",42.013238799999996,-4.5337654
Estación ITV Granada - VEIASA,"Av. de Andalucía, s/n, 18015 Granada",37.198033,-3.6449265
Córdoba,"Glorieta Tres Culturas, s/n, 14011 Córdoba",37.8884888,-4.7895246
Estacion FF. CC.,"29510 Barriada Estación, Málaga",36.819959999999995,-4.699745200000001
Estación de Autobuses de Granada,"Av. de Juan Pablo II, s/n, 18014 Granada",37.199694,-3.613654
Estacíon de Granada Adif,"Av. de Andaluces, S/N, 18014 Granada",37.1839999,-3.6091361000000006
Barriada Estacion,"29510 Barriada Estación, Málaga",36.8210519,-4.6996915
Estación de Autobuses de Cádiz,"Av. Astilleros, 302, 11007 Cádiz",36.5269719,-6.286203400000001
Estación de Sevilla-Santa Justa,Sevilla,37.391138500000004,-5.9754708
Estación Berja,"04760 Berja, Almería",36.84064,-2.9473
Punto Recarga Coche Electrico,"Av. de los Guindos, 112, 29004 Málaga",36.689698,-4.4428559000000005
Estación de autobuses San Bernardo,"Calle San Bernardo, 1B, 11207 Algeciras, Cádiz",36.125947700000005,-5.4478547
Estación ITV Córdoba (C/Ingeniero Torres Quevedo) - VEIASA,"Calle Ingeniero Torres Quevedo, s/n, Polígono Industrial La Torrecilla, 14013 Córdoba",37.851986600000004,-4.7919383999999985
Sevilla Santa Justa,"41007, Calle Joaquin Morales y Torres, 41003 Sevilla",37.391863,-5.975339
El Ejido,"04700 El Ejido, Almería",36.77304,-2.80813
Estación de Puerto Real,"11 11510, Ctra. de Circunvalación, 9, 11510 Puerto Real, Cádiz",36.5309599,-6.185581299999999
Aparcamientos Úbeda,"Plaza Andalucía, S/N, 23400 Úbeda, Jaén",38.0109523,-3.3718635000000003
Barriada Estación,"29510 Barriada Estación, Málaga",36.82086109999999,-4.699561099999999
Terminal Fuengirola,"Calle Alfonso XIII, 5, 29640 Fuengirola, Málaga",36.5415,-4.62293
Enix,"04729 Enix, Almería",36.877269399999996,-2.601775
Estación de Servicio Repsol,"A-92 Km. 1,50 I, 41020 Sevilla",37.3870273,-5.9350013
Úbeda,"Calle San José, 23400 Úbeda, Jaén",38.0123843,-3.3785089
Estación de carga de vehículos eléctricos,"Plaza de Aragón, 22300 Barbastro, Huesca",42.035351,0.1213713
Tesla Destination Charger,"Calle de San Roque, 1, 6, 50230 Alhama de Aragón, Zaragoza",41.294603,-1.8968939999999999
Estación de carga de vehículos eléctricos,"Plaza Cortes de Aragón, 5, 22700 Jaca, Huesca",42.5695049,-0.5510974000000001
Tesla Supercharger,"Camino de la Paridera de Costa, 50012 Zaragoza",41.624111799999994,-1.0109892
Tesla Supercharger,"43896 L'Aldea, Tarragona",40.7529908,0.6064046999999999
IBIL Charging Station,"Av. de Casablanca, 11, 50019 Zaragoza",41.6231572,-0.9392437
Iberdrola Clientes Charging Station,"Ctra. Corella, 31500 Tudela, Navarra",42.06233100000001,-1.6203530000000002
Iberdrola Estación de carga,"Carrer Metge José Pérez Martínez, 1, 46160 Llíria, Valencia",39.6332084,-0.5922097
Iberdrola Clientes Charging Station,"Av. Juan Pablo II, 4, 31006 Pamplona, Navarra",42.8041,-1.6280000000000001
Iberdrola Clientes Charging Station,"Av. de Burgos, 49, 26006 Logroño, La Rioja",42.4615534,-2.4692679
Iberdrola Clientes Charging Station,"Calle Teatro Malibrán, 28, 50021 Zaragoza",41.6077,-0.8914
Lugenergy Estación de carga,"Av. de los Hermanos Machado, 137, 46025 Valencia",39.4978749,-0.3826875
Zoilo Ríos Estación de carga,"Autovía de Logroño, 0,300, 50011 Zaragoza",41.6604005,-0.9250773000000001
Supercargador TESLA,"Calle Carr. de madrid, 50220 Ariza, Zaragoza",41.3131364,-2.0026174
Puntos de Recarga,"Av. de Salvador Allende, 105, Local, 50015 Zaragoza",41.677859600000005,-0.8722631999999999
Estacíon de Alhama De Aragon Adif,"Carretera Estacion Ferrocarril, S/N, 50230 Alhama de Aragón, Zaragoza",41.2943278,-1.9043271000000002
Estación de Servicio Repsol,"A-68, P.K. 258,25 DE, 50692 Villarrapa, Zaragoza",41.74049249999999,-1.0789535
Estacíon de Binefar Adif,"Av. de Aragon, S/N, 22500 Binéfar, Huesca",41.84975479999999,0.29138600000000003
Estacíon de La Puebla De Hijar Adif,"Plaza Del, Plaza Reino de Aragón, 1, 44510, Teruel",41.2243315,-0.4385412
Estacíon de Grañen Adif,"Calle, Ronda de Aragón, S/N, 22260 Grañén, Huesca",41.937981,-0.3693002
Estación de Servicio Repsol,"Calle Corona de Aragón, 52 IZ, 22300 Barbastro, Huesca",42.0346932,0.1282539
Canfranc,"22880 Canfranc-Estación, Huesca",42.751471,-0.514641
Puerto Escandon,"44442, Teruel",40.273092,-0.985079
Cariñena,"50400 Cariñena, Zaragoza",41.335586,-1.228422
Zaragoza-Delicias,"Av. Navarra, 80, 50011 Zaragoza",41.65869379999999,-0.911226
Ayerbe,"22800 Ayerbe, Huesca",42.27561,-0.682569
Zaragoza Plaza,"Unnamed Road, Zaragoza",41.6772633,-0.9442944
Iberdrola Estación de carga,"Calle Esquíroz, 31007 Pamplona, Navarra",42.8079581,-1.6492792
Repsol,"A-2, Km 202, 50292 Cetina, Zaragoza",41.3027424,-1.9457493000000001
Zaragoza-Delicias,"Calle Rioja, 33, 50011 Zaragoza",41.657846899999996,-0.9091052
Caspe,"50700 Caspe, Zaragoza",41.239738,-0.042700999999999996
FINSA CELLA II,"Ctra. Estación, 4, 44370 Cella, Teruel",40.453478600000004,-1.2447381000000002
Gallur,"50650, Zaragoza",41.867164,-1.321342
Luceni,"50640 Luceni, Zaragoza",41.826116,-1.243536
Estación de Servicio Repsol,"Cr N-330, 491,9 I, 50019 Zaragoza",41.6210922,-0.9150136
Fayón-La Pobla de Massaluca,"43783, Tarragona",41.225031200000004,0.35111190000000003
Aragón,46010 Valencia,39.4725531,-0.35794190000000004
Estación de Servicio Repsol,"Av. Isla de Murano, S.N, 50021 Zaragoza",41.6097869,-0.8819564999999999
Estación de Servicio Repsol,"Av. de la Ilustración, 1, 50012 Zaragoza",41.62685949999999,-0.9227648999999999
"OFICINAS CENTRALES ZOILO RIOS, S.A.","Autovía de Logroño. p.k.0.300, 50011 Zaragoza",41.6604906,-0.9255567999999998
Estación de carga de vehículos eléctricos,"33429, Asturias",43.390507299999996,-5.8029572
Estación de carga de vehículos eléctricos,"33010 Oviedo, Asturias",43.372637299999994,-5.8150306999999986
Repsol Estación de carga,"Av. de Oviedo, 27B, 33211 Gijón, Asturias",43.5221402,-5.6838922
EDP Estación de recarga rápida eléctrica y de gas natural comprimido,"Av. de Oviedo, 230, 33211 Gijón, Asturias",43.518087,-5.686856099999999
Estación de carga de vehículos eléctricos,"Plaza Mayor, 2, 33201 Gijón, Asturias",43.5446236,-5.662274699999998
Estación de carga de vehículos eléctricos,"Calle Juan López Peñalver, 33204 Gijón, Asturias",43.5227443,-5.625524700000001
EDP Estación de carga,"Calle del Gral. Elorza, 71, 33002 Oviedo, Asturias",43.3668546,-5.8487877
EDP Estación de carga,"n°13, Calle Álvarez Garaya, 33206 Gijón, Asturias",43.5412615,-5.665589700000001
Estación de carga de vehículos eléctricos,"Barrio el Plano, 8, 28, 33211 Gijón, Asturias",43.535122799999996,-5.6925099
EDP Estación de carga,"Calle de la Independencia, 13, 33004 Oviedo, Asturias",43.36479689999999,-5.8548851
Wenea Estación de carga,"N-634, 33569 Ribadesella, Asturias",43.4309674,-5.0625212999999984
Estación de carga de vehículos eléctricos,"Plaza de San Miguel, 1, 33202 Gijón, Asturias",43.5398613,-5.65813
Estación de carga de vehículos eléctricos,"33401 Avilés, Asturias",43.5749789,-5.9293754000000005
edp Estación de carga,"Calle Canga Argüelles, 12, 33202 Gijón, Asturias",43.538481700000006,-5.650876999999999
EDP Estación de carga,"Calle Avelino Glez Mallada, 27, 33204 Gijón, Asturias",43.5326774,-5.649454
Iberdrola Estación de carga,"8 Aldea, Aldea Bendones, 33195 Santa María de Bendones, Asturias",43.3364285,-5.806597
EDP Estación de carga,"Carlos Marx, Calle Juanín de Mieres, 1, 33207 Gijón, Asturias",43.5360769,-5.6728762
EDP Estación de carga,"Plaza Europa, 33450 Piedras Blancas, Asturias",43.5591662,-5.9772415
Estación de carga de vehículos eléctricos,"Calle Escuela Capataces, 43, 33600 Mieres, Asturias",43.253244,-5.7745277999999995
Estación de carga de vehículos eléctricos,"Camino La Cadellada, 33011 Oviedo, Asturias",43.3773626,-5.8246113
Iberdrola Clientes Charging Station,"Aldea Paredes, 33429 Paredes El Cuetu, Asturias",43.3881283,-5.8071626
Estación de carga de vehículos eléctricos,"Barrio Cerdeño, 14, 33010 Oviedo, Asturias",43.37161589999999,-5.816210799999999
Estación de carga de vehículos,"Calle Canga Argüelles, 14, 33202 Gijón, Asturias",43.5385415,-5.6508614999999995
Estación de carga de vehículos eléctricos,"Caserio la Estrecha, 35T, 33011 Oviedo, Asturias",43.3813393,-5.829434699999998
Tesla Destination Charger,"Unnamed Road, 33429, 33429, Asturias",43.390181,-5.8047372
Punto de recarga para Coches Eléctricos,"Lugar la Fresneda, 9A, 33429, Asturias",43.4139936,-5.7967385
"EDP Comercializadora, SAU Charging Station","Av. de Oviedo, 176, 33211 Gijón, Asturias",43.518088,-5.686847999999999
"EDP Comercializadora, SAU Charging Station","[no name], 33457 Castriḷḷón, Asturias",43.558741,-6.033053
"EDP Comercializadora, SAU Charging Station. Estación de carga de vehículos eléctricos.","Av Carr del Puerto, 11, 33830 Belmonte, Asturias",43.2846217,-6.2176445
"EDP Comercializadora, SAU Charging Station","Calle Picos de Europa, 33550 Cangas de Onís, Asturias",43.352418,-5.126055
Estación de carga de vehículos eléctricos,"Bo Barredo, 1, 33619 Mieres, Asturias",43.243018299999996,-5.7753992
EDP Estación de carga,"Polígono Parque Tecnológico, 33394 Gijón, Asturias",43.522923399999996,-5.613347
Punto de Recarga Para Coches Eléctricos,"Calle Juan de Austria, 10, 33213 Gijón, Asturias",43.5389948,-5.704622899999999
Estación de carga de vehículos eléctricos,"33010 Oviedo, Asturias",43.370549700000005,-5.8174663
Estación de carga de vehículos eléctricos,"Lugar Soto, 85, 33993 Rioseco, Asturias",43.2021202,-5.4680444999999995
Estación de carga de vehículos eléctricos,"Av. de los Monumentos, 33194 Oviedo, Asturias",43.373981,-5.863603899999998
Punto de Carga de VE,"Calle Hermanos García Gavito, 33500 Llanes, Asturias",43.422146399999995,-4.7548139
Estación de carga de vehículos eléctricos,"Calle Teodoro Cuesta, 2, 33600 Mieres, Asturias",43.2488883,-5.7718986
EDP Estación de carga,"82, Posada, 33690 Lugo de Llanera",43.422419,-5.826525
"EDP Comercializadora, SAU Charging Station","Calle Alfredo Truan, 1, 33205 Gijón, Asturias",43.5379426,-5.661900900000001
EDP Estación de carga,"Calle Foncalada, 14, 1ºd, 33002 Oviedo, Asturias",43.3648661,-5.846601799999998
EDP Estación de carga,"Cayés s/n, 33428, Asturias",43.4284998,-5.8314835
"EDP Comercializadora, SAU Charging Station","Calle de Asturias, 1, 33820 Grado, Asturias",43.387464,-6.072723000000001
EDP Estación de carga,"Calle Jose Luis Alvarez Margaride, 33204 Gijón, Asturias",43.525481899999996,-5.623283
Estación de carga de vehículos eléctricos,"Cl. Joaquín Costa, 8D, 33011 Oviedo, Asturias",43.370467600000005,-5.831601200000001
"EDP Comercializadora, SAU Charging Station","Av. del Llano, 19, 33209 Gijón, Asturias",43.53426839999999,-5.6603796
"EDP Comercializadora, SAU Charging Station","Av. de Torcuato Fernández Miranda, 2, 33203 Gijón, Asturias",43.5376187,-5.646305
"EDP Comercializadora, SAU Charging Station","Calle A, 33428 Coruño, Asturias",43.427307,-5.837884
"EDP Comercializadora, SAU Charging Station","Av. los Deportes, 1, 33829 Grado, Asturias",43.383319,-6.075036
"EDP Comercializadora, SAU Charging Station","Calle Río de Oro, 39, 33209 Gijón, Asturias",43.5269608,-5.6639027
"EDP Comercializadora, SAU Charging Station","Avenida Principal, 33429, Asturias",43.41575,-5.797037
Estación de carga de vehículos eléctricos,"Calle Frai Paulino Álvarez, 29, 33600 Mieres, Asturias",43.2430256,-5.774306200000001
"EDP Comercializadora, SAU Charging Station","Posada, 33192 Lugo de Llanera, Asturias",43.4228009,-5.8259548
"EDP Comercializadora, SAU Charging Station","N-632, 33300 Villaviciosa, Asturias",43.4889439,-5.444471
"EDP Comercializadora, SAU Charging Station","Calle Rector Julio Rodríguez, 1, 33600 Mieres, Asturias",43.2432424,-5.775941099999999
"EDP Comercializadora, SAU Charging Station","Playa de Rodiles, 33313 Selorio, Asturias",43.53214699999999,-5.373816000000001
"EDP Comercializadora, SAU Charging Station","Calle Juan Alvargonzález, 41, 33208 Gijón, Asturias",43.5302854,-5.6683901
"EDP Comercializadora, SAU Charging Station","Pol. Ind. El Cortaficio, 18, 33748 Tapia de Casariego, Asturias",43.561873,-6.9231240000000005
"EDP Comercializadora, SAU Charging Station","Calle Peña Santa, 33192 Lugo de Llanera, Asturias",43.416616,-5.810642
"EDP Comercializadora, SAU Charging Station","Carr. de Castiello, 33204 Bernueces, Asturias",43.524358,-5.6366189
Tesla Supercharger Reocín,"Barrio la Veguilla, 39538 Reocín, Cantabria",43.355563200000006,-4.0949048999999995
IBIL Estación de carga,"69 Diseminado, 39791 Ambrosero",43.411266499999996,-3.5423982000000005
Charge And Drive Estación de carga,"Calle José María Pereda, 18, 39300 Torrelavega, Cantabria",43.3504244,-4.04934
EDP Estación de carga,"Alameda Oviedo, 1, 39710 Solares, Cantabria",43.460733399999995,-3.8158797
Charge And Drive Charging Station,"Av. de los Castros, 55D, 39005 Santander, Cantabria",43.471503999999996,-3.7991366
Charge And Drive Charging Station,"Calle Cardenal Cisneros, 2, 39001 Santander, Cantabria",43.46317699999999,-3.8107660000000005
Charge And Drive Charging Station,"Calle Calderón de la Barca, 18, 39002 Santander, Cantabria",43.4592592,-3.8087241
Punto De Recarga Coche Eléctrico,"Av. de Cantabria, 11, 39770 Laredo, Cantabria",43.4102229,-3.4213199
Charge And Drive Charging Station,"Calle Jerónimo Sáinz de la Maza, 2, 39008 Santander, Cantabria",43.45816,-3.826439999999999
IBIL Charging Station,"Av. Ris, 64, 39180 Noja, Cantabria",43.48983399999999,-3.529208
Endesa Estación de carga,"Av. la Constitución, 2A, 39700 Castro Urdiales, Cantabria",43.382309899999996,-3.2176
Tesla Destination Charger,"Calle Fuente del Amor, s/n, 39820 Limpias, Cantabria",43.358353,-3.422443
Feníe Energía Estación de carga,"CA-131, 39547 San Vicente de la Barquera, Cantabria",43.385017,-4.338398000000001
Charge And Drive Charging Station,"Polígono Parque Científico y Tecnológico, 11, 39011 Santander, Cantabria",43.4537534,-3.8715016
Itevelesa,"Calle Amos de Escalante, 4, 39002 Santander, Cantabria",43.4581881,-3.8098184
Charge And Drive Charging Station,"Av. Manuel García Lago, 9, 39005 Santander, Cantabria",43.4785494,-3.7889691
Iberdrola Estación de carga,"Av. Cantabria, 23, 39400 Los Corrales de Buelna, Cantabria",43.2557701,-4.0681889
Fenie Energia,"Av. Miramar, 1, 39540 San Vicente de la Barquera, Cantabria",43.3838115,-4.399196099999999
Charge And Drive Charging Station,"Calle Rufino Ruíz Ceballos, 11, 39600 Camargo, Cantabria",43.4226701,-3.8434652000000002
IBIL Charging Station,"Plaza de la Villa, 5B, 39180 Noja, Cantabria",43.480003,-3.5225120000000003
EDP Charging Station,"N-634, 2E, 39594, Cantabria",43.374927,-4.500594
Tesla Destination Charger,"s/n Barrio La Barcena, Barrio Valle, 19-116, 39815 Valle, Cantabria",43.279418,-3.526302
Iberdrola Clientes Charging Station,"N/A LAS CARMELAS, N-634, 39560, Cantabria",43.374835,-4.502008
Iberdrola Charging Station,56A Poligono Vega Reinosa 39200 ES,42.994414899999995,-4.131486
EDP Charging Station,"Plaza Del Ayuntamiento, 1A, 39724 Solares, Cantabria",43.383,-3.739
EDP Charging Station,"Calle las Quebrantas, 13, 39140 Somo, Cantabria",43.45593299999999,-3.7428
Tesla,"CA-454, 39192 San Miguel de Meruelo, Cantabria",43.4529838,-3.5729635
Wenea Estación de carga,"N-634, 33569 Ribadesella, Asturias",43.4309674,-5.0625212999999984
Iberdrola Charging Station,"Retuerto Kalea, 55, 48903 Barakaldo, Bizkaia",43.287416,-3.007997
IBIL Charging Station,"Azkue Kalea, 1, 48902 Barakaldo, Bizkaia",43.290411999999996,-2.988979
Iberdrola Charging Station,"Erribera Etorbidea, 3, 48903 Barakaldo, Bizkaia",43.29184,-3.006589
Feníe Energía Charging Station,"Carrer de Cantàbria, 46, 07829 Sant Josep de sa Talaia, Illes Balears",38.962796000000004,1.293397
Estación Autobuses de Santander,"Plaza Estaciones, S/N, 39002 Santander, Cantabria",43.4593554,-3.8096996
RED Cantabria,"Carretera Nacional 635, km 10,200, 39792 Heras, Cantabria",43.396309,-3.787258
Estacion de Santander,"Plaza Estaciones, 1, 39002 Santander, Cantabria",43.459149,-3.811547
Estación de Servicio Repsol,"CR N-634 P.K. 232,50 D, 39300 Sierrapando, Cantabria",43.3409994,-4.0294241
Estación de Servicio El Centro,"Av. Cantabria, 1495, 39318 Cudón, Cantabria",43.41383,-4.011240000000001
Estación De Servicio Martínez Castanedo Hermanos,"Calle Reconquista de Sevilla, 15, 39770 Laredo, Cantabria",43.4102385,-3.4128642
Estación de Servicio Repsol,"N-611 Km. 182,00 I, 39311 Cartes, Cantabria",43.3327124,-4.0658406000000005
Estación de servicio Cepsa,"CTRA. BERANGA-NOJA P.K. 4,700, LOS BEREZALES S/N, 39213 Bolmir, Cantabria",42.986360999999995,-4.134083
Gasolinera Nieves Torrelavega,"Calle Barrio Sierrapando, 371, 39300 Torrelavega, Cantabria",43.3426669,-4.030134600000001
Estación de Servicio Repsol,"Ca-142, 5,8 DE, 39690 Villanueva, Cantabria",43.3616999,-3.8598492999999996
Estación de servicio Cepsa,"Calle Aurelio García Cantalapiedra, S/n, 39300 Torrelavega, Cantabria",43.33273579999999,-4.047605600000001
Estación de Servicio Petronor - Repsol,"Cr N-611, 163,2 I, 39450 Arenas de Iguña, Cantabria",43.1819906,-4.052447799999999
Estación de servicio Cepsa,"Po, Av. de Joaquin Fernandez Vallejo, 12, 39300 Torrelavega, Cantabria",43.343588700000005,-4.0463771
Estación de servicio Cepsa,"N-634, Pk 244, 7, 39500 Cabezón de la Sal, Cantabria",43.323374,-4.193078
Estacíon de Mataporquera Adif,"Calle de la Constitución, 17, 39410 Mataporquera, Cantabria",42.8711079,-4.164958299999999
Estación de Servicio Repsol,"Cr N-623, 116 I 39699, Villegar, Cantabria",43.2194002,-3.944057099999999
Gasolinera Cepsa,"Barrio la Sota Cr Sv-4303, Barrio la Sota, Pk 1,5, 39794 Anero, Cantabria",43.39109939999999,-3.6650156000000003
Área de Servicio AVIA Fombellida,"Ctra. Km.130,1, N-611, 39211 Fombellida, Cantabria",42.940108,-4.123334
Santander,"39008 Santander, Cantabria",43.4583294,-3.8109762999999988
Los Corrales de Buelna,"39400 Los Corrales de Buelna, Cantabria",43.255076,-4.063922
Wenea Estación de carga,"Arraiz Bidea, 116, 48002 Bilbo, Bizkaia",43.2415141,-2.9604141
Estación de servicio Cepsa,"N-611, Pk 197, 39478 Arce, Cantabria",43.408475,-3.945767
Repsol,"Calle Santander, 15, 39500 Cabezón de la Sal, Cantabria",43.309371,-4.234989
Transportes El Centro,"Av. Cantabria, 1495, 39318 Cudón, Cantabria",43.41383,-4.011240000000001
Estación de Esquí y Montaña Alto Campoo,"Carretera Reinosa-Alto Campoo km 24, 39210, Cantabria",43.0371406,-4.3735884999999985
NACEX,"Pol. Ind. Candina, Av. Candina, 20, 39011 Santander, Cantabria",43.452420399999994,-3.8316668
NACEX,"Calle la Quinta, 27, 39750 Colindres, Cantabria",43.3936682,-3.4499529000000004
Repsol Soto Iruz,"CA-270, S/N Km. 200, 39691 Santiurde de Toranzo, Cantabria",43.2728935,-3.9352861000000003
Iberdrola Estación de carga,"Av. Adolfo Suárez, 30, 16400 Tarancón, Cuenca",40.0063516,-3.0189852000000004
Estación de Carga para Vehículo Eléctricos,"Calle Don Quijote de la Mancha, 6, 02610 El Bonillo, Albacete",38.9524915,-2.5373962000000003
Estación de carga de vehículos eléctricos,"Calle Sector 12, 46P, 45280, Toledo",39.9450219,-3.9966510000000004
Estación de carga de vehículos eléctricos,"Av. de Elena Soriano, 10A, 28597 Fuentidueña de Tajo, Madrid",40.1186841,-3.1618849
Estación de carga de vehículos eléctricos,"28597 Fuentidueña de Tajo, Madrid",40.1201168,-3.1522568
Estación de carga de vehículos eléctricos,"45200 Illescas, Toledo",40.1525151,-3.8363647000000003
Estación de carga de vehículos eléctricos,"Calle Valhondo, 3V, 45520 Villaluenga de la Sagra, Toledo",40.043083,-3.9172432
Endesa Estación de carga,"Av. de los Alcotanes, 2, 28320 Pinto, Madrid",40.246435999999996,-3.7106199999999996
Estacion de Carga de Vehiculos Eléctricos,"Calle Rio, 1, 45642 Cardiel de los Montes, Toledo",40.0627739,-4.653042
Chargemaster Charging Station,"HOTEL LA ATALAYA - CARGACOCHES, Autovía del Este, km 62.500, 28597 Fuentidueña de Tajo, Madrid",40.12010600000001,-3.152257
IBIL Charging Station,"19208 Alovera, Guadalajara",40.5794647,-3.2358245
Iberdrola Charging Station,Km 57 A-4 Ocaña 45300 ES,39.96833,-3.5468629999999997
Wenea Estación de carga,"Av. de Madrid, 1, 45950 Casarrubios del Monte, Toledo",40.2502787,-4.0552391000000005
Tesla Supercharger,"Carretera N-iv K-173,100, 29, 13200 Manzanares, Cdad. Real",39.0063666,-3.3832406
Chargemaster Charging Estación de carga,"HOTEL BEATRIZ TOLEDO AUDITORIUM & SPACalle Concilios de, 45005, Toledo",39.877496,-4.042406600000001
ENDESA Charging Station,"Av. de Andalucía, 204, 28341 Valdemoro, Madrid",40.21,-3.681
Iberdrola Charging Station,"Area de Servicio Taray, 13210 Villarta de San Juan, Cdad. Real",39.250521899999995,-3.430358
Iberdrola Clientes Charging Station,"N-430, 309, 13005 Ciudad Real, Cdad. Real",38.9873468,-3.9140912000000005
Charge and Parking Charging Station,"A-3, 62, 28597 Fuentidueña de Tajo, Madrid",40.1201162,-3.1522142000000004
Iberdrola Charging Station,"1 Plaza de España, 16710 Atalaya del Cañavate",39.538723,-2.254855
ENDESA Charging Station,"1, N-II, 19192 Trijueque",40.774409999999996,-2.99439
Estación de carga de vehículos eléctricos,"Calle Mayor Alta, 147, 28540 Perales de Tajuña, Madrid",40.239723,-3.3525521
ENDESA Charging Station,"Calle Camino de Bastos, 6, 28600 Navalcarnero, Madrid",40.2914249,-4.0033889999999985
Tesla Destination Charger,"2 Calle Infante Don Juan Manuel, 16640 Belmonte",39.560724,-2.702476
Tesla Destination Charger,"no name, Calle de Pedro Oviedo, 8, 13270 Almagro, Cdad. Real",38.888267,-3.7173870000000004
Tesla Destination Charger,"Autovía de Extremadura, Salida, 163, 10392 Isla de Valdecanas, Cáceres",39.837071,-5.379258
Iberdrola Charging Station,"6, CM-5102, 45560 Oropesa",39.926884,-5.18534
Tesla Destination Charger,"Av. Escritor Rodrigo Rubio, 11, 02006 Albacete",39.007791499999996,-1.8835113999999997
Estación de carga de vehículos eléctricos,"Av. de la Constitución, 106, 28850 Torrejón de Ardoz, Madrid",40.458217,-3.4669382000000004
Estación de carga de vehículos eléctricos,"28110 Algete, Madrid",40.5970936,-3.5075498999999994
ENDESA Charging Station,"Av. Río Guadalquivir, 1, 28906 Getafe, Madrid",40.272625,-3.6941599999999997
Tesla Supercharger,"Av. Ada Lovelace, 23, 28906 Getafe, Madrid",40.2903543,-3.6963012
GiC - Gestion Inteligente de Cargas Charging Station,"Calle Cerro de la Plata, 4, 28007 Madrid",40.39992,-3.6751419999999997
Estacion Carga VE Ibil Charging Station,"Calle de Alfonso XII, 2, 28014 Madrid",40.419264,-3.6889067000000004
Fenie Energía Estación de carga,"Calle las Fraguas, 2, 28923 Alcorcón, Madrid",40.34232720000001,-3.8144501
IBIL Estación de carga,"Calle de Fuencarral, 122, 28010 Madrid",40.429581,-3.7024657
Estación de carga de vehículos eléctricos,"Calle de Génova, 24, 28004 Madrid",40.4258816,-3.6924165
Charge and Parking Charging Station,"Av. Río Guadalquivir, 20, 28906 Getafe, Madrid",40.2704654,-3.6961146
IBIL Gestor de Carga de VE S.A. Charging Station,"N-501, 28935 Móstoles, Madrid",40.333878999999996,-3.887026
ENDESA Charging Station,"1625, Calle Villaviciosa, 28946",40.274571,-3.760763
GiC - Gestion Inteligente de Cargas Charging Station,"Carga Pública, Plaza de la Lealtad, 3, 28014 Madrid",40.416158,-3.6921449999999996
IBIL Charging Station,"Ctra. Villaverde a Vallecas, 28046 Madrid",40.372233,-3.639021
Tesla Destination Charger,"C. de Méndez Álvaro, 30, 28045 Madrid",40.401365000000006,-3.6870910000000006
IBIL Estación de carga,"Calle de Vallehermoso, 49, 28015 Madrid",40.435194,-3.7091736000000006
GiC - Gestion Inteligente de Cargas Charging Station,"Carga Pública, Ronda de Valencia, 1, 28012 Madrid",40.405665899999995,-3.699728
GiC - Gestion Inteligente de Cargas Charging Station,"Carga Pública, Paseo de la Castellana, 33, 28046 Madrid",40.4319208,-3.6891517
Tesla Destination Charger,"Calle Colegios, 8, 28801 Alcalá de Henares, Madrid",40.481548100000005,-3.3608592000000006
GIC Estación de carga,"Calle de Goya, 36, 28001 Madrid",40.424907,-3.6810449999999997
ENDESA Charging Station,"Camino del Pozo del Tío Raimundo, 7, 28031 Madrid",40.373381200000004,-3.6500617999999996
Iberdrola Charging Station,"Calle Franklin, 1, 28906 Getafe, Madrid",40.3027299,-3.696050999999999
GiC - Gestion Inteligente de Cargas Charging Station,"Carga Pública, C\Card, Calle de Cardenal Marcelo Spínola, 6, 28016 Madrid",40.466738899999996,-3.670647
GiC - Gestion Inteligente de Cargas Charging Station,"Carga Pública, Paseo de la Castellana, 257, 28046 Madrid",40.478054,-3.686428
"EDP Comercializadora, SAU Charging Station","Av. de Pablo Iglesias, 17, 28942 Fuenlabrada, Madrid",40.302031899999996,-3.830892
Tesla Destination Charger,"Calle de Valparaíso, 12, 28944 Fuenlabrada, Madrid",40.2840904,-3.7850851999999997
Tesla Destination Charger,"Calle Antonio Suárez, 8, 28802 Alcalá de Henares, Madrid",40.475131,-3.392466
Iberdrola Charging Station,"Av. de la Albufera, 319, 28031 Madrid",40.384021999999995,-3.632026
Tesla Destination Charger,"Paseo de la Castellana, 49, 28046 Madrid",40.436414899999995,-3.690211
ENDESA Charging Station,"Av. de España, 18, 28941 Fuenlabrada, Madrid",40.292186,-3.7981769999999995
Estación de carga de vehículos eléctricos,"Calle de Emilio Vargas, 3, 5, 28043 Madrid",40.447732200000004,-3.6553216
Feníe Energía Charging Station,"C. de la Princesa, 5, 28008 Madrid",40.424977,-3.712928
EasyCharger Estación de carga,"Extrarradio Diseminados, 74, 47132 Tordesillas, Valladolid",41.5421864,-4.897175700000001
Iberdrola Clientes Charging Station,"Ctra. de Villacastín, 14, 37893 Encinas de Abajo, Salamanca",40.931959899999995,-5.466889
Iberdrola Charging Station,"Autovía de Castilla, 210, 37419 Parada de Rubiales, Salamanca",42.275446,-3.896919
Iberdrola Clientes Charging Station,"Calle de los Doctrinos, 4, 47001 Valladolid",41.64916970000001,-4.729897900000001
Iberdrola Clientes Charging Station,"Calle las Pozas, 183, 28200 San Lorenzo de El Escorial, Madrid",40.60278100000001,-4.127734999999999
Estación de Madrid-Chamartín,28036 Madrid,40.4718908,-3.6825565000000005
Estación Naturgy Sanchinarro,"Av. de Francisco Pi y Margall, 5, 28050 Madrid",40.484855700000004,-3.6458831
Estación de Servicio GNL y GNC Molgas,"Calle Cerrajeros, 16, 28830 San Fernando de Henares, Madrid",40.44127460000001,-3.5015475
Estación Naturgy Villaverde,"Calle de Piñuecar, 53, 28021 Madrid",40.335792700000006,-3.7178366
CETM (Confederación Española de Transporte de Mercancías),"Calle de López de Hoyos, 322, 28043 Madrid",40.455941499999994,-3.6613112
Estación Naturgy Aravaca,"Calle Rafael Botí, 5, 28023 Madrid",40.46352,-3.8047302000000003
Estación de Avenida de América,28002 Madrid,40.438320000000004,-3.67645
Grupo CLH,"Calle Titán, 13, 28045 Madrid",40.3909854,-3.6795606
Gasolinera Avia,"Calle de Méjico, 17, 28806 Alcalá de Henares, Madrid",40.4981813,-3.3901667
Estación de Servicio Galp,"Travesia de Jose Alix Alix, 40, 28823 Coslada, Madrid",40.4328255,-3.5336217000000003
Bicimad,"Plaza de Castilla, 28046 Madrid",40.4663611,-3.6886388
Gran Vía,28013 Madrid,40.419852399999996,-3.7016062000000005
Bicimad,"Cea Bermúdez, 28003 Madrid",40.438994,-3.715432899999999
Paco de Lucía,"Calle del Monasterio de Las Huelgas, 28034 Madrid",40.4996245,-3.7091512000000004
Serrano,28001 Madrid,40.425355700000004,-3.6866470000000002
Bicimad,"Plaza de Castilla 2, 28046 Madrid",40.465677899999996,-3.688772199999999
Bicimad,"San Germán, 28020 Madrid",40.4572824,-3.7009675000000004
Metro de Madrid - Depósito 9 Zona 4,28050 Madrid,40.4838592,-3.6587227999999996
Endesa Estación de carga,"Plaça de Catalunya, 21, 08002 Barcelona",41.38583,2.17033
ENDESA Charging Station,"Rambla de Catalunya, 16, 08007 Barcelona",41.38823,2.16743
Tesla Supercharger,"PGA Catalunya Resort, Carretera N-II, 17455 Caldes de Malavella, Girona",41.858738,2.7676613
IBIL Estación de carga,"Avinguda Diagonal, 687, 08028 Barcelona",41.382557,2.106467
Punt recàrrega elèctrica cotxes i motos,"Avinguda de Catalunya, 17850 Besalú, Girona",42.19929459999999,2.6946069
Tesla Destination Charger,"Gran Via de les Corts Catalanes, 373-385, 08015 Barcelona",41.376469,2.150236
Punt recàrrega elèctrica cotxes i motos,"Plaça de Catalunya, 10, 17004 Girona",41.981880100000005,2.8237799
Tesla Destination Charger,"Gran Via de les Corts Catalanes, 647, 08010 Barcelona",41.39277,2.1717049999999998
Punt recàrrega elèctrica motos,"Av. de Josep Tarradellas, 1, 08029 Barcelona",41.3812465,2.1420044
Endolla Barcelona Estación de carga,"Carrer de Calàbria, 66, 08015 Barcelona",41.3781949,2.1579478
Punto de carga eléctrica para coches y motos,"Avinguda Diagonal, 508, 08006 Barcelona",41.3953434,2.1537285
ENDESA Charging Station,"Av. de Catalunya, 14, 08734 Sant Miquel d'Olèrdola, Barcelona",41.320939,1.7221400000000002
Manlleu - ETECNIC Charging Station,4 Plaça 36.P.P.Mas Roca Manlleu Catalunya 08560 ES,42.0005669,2.2833639999999997
Etecnic Charging Station,"Av. de les Comarques Catalanes, 2, 43740 Móra d'Ebre, Tarragona",41.089721000000004,0.6433639999999999
Punto de Carga para Motos Eléctricas,"Rambla de Badal, 167, 08028 Barcelona",41.3753855,2.1300995
Etecnic Charging Station,"Plaça de Catalunya, 15, 43770 Móra la Nova, Tarragona",41.097721,0.648795
Agència de Desenvolupament del Berguedà - ETECNIC Charging Station,3 Plaça Pedraforca Saldes Catalunya 08697 ES,42.228589,1.7351130000000001
ENDESA Charging Station,"Plaça de Catalunya, 2, 08002 Barcelona",41.386184,2.169343
Punt recàrrega elèctrica vehicles,"Avinguda Diagonal, 449, 08036 Barcelona",41.3935827,2.1489219
Punt de recàrrega elèctrica cotxes i motos,"Carrer de Provença, 449, 08025 Barcelona",41.4049888,2.1749322
Etecnic Charging Station,"Plaça Catalunya, 2, 08650 Sallent, Barcelona",41.827013,1.892525
IBIL Charging Station,"C-1414, 1, 08292 Esparreguera, Barcelona",41.5278213,1.8809191000000003
Iberdrola Clientes Charging Station,"Carrer d'Agustí Coll, 18, 08243 Manresa, Barcelona",41.724182899999995,1.849144
Iberdrola Clientes Charging Station,"Av. de la Concòrdia, 1, 08206 Sabadell, Barcelona",41.559019799999994,2.0963261
Iberdrola Estación de carga,"Carrer de Grècia, 08915 Badalona, Barcelona",41.458796,2.225098
Estación de carga de vehículos eléctricos,"Carrer d'Enric Morera, 19, 17257 Torroella de Montgrí, Girona",42.041951,3.1289246
Iberdrola Charging Station,"Pol. Ind. Can Estella, 1, 08635 Sant Esteve Sesrovires, Barcelona",41.49224,1.89235
Tesla Supercharger,"Camí de Can Camps, 17, 08174 Sant Cugat del Vallès, Barcelona",41.4981654,2.0727002
Tesla Supercharger,"43896 L'Aldea, Tarragona",40.7529908,0.6064046999999999
Iberdrola Charging Station,"Av de Cataluña, 20, 03540 Alicante",38.365229,-0.417234
Circontrol,"P.I. Can Mitjans, Carrer Innovació, 3, 08232 Viladecavalls, Barcelona",41.5547236,1.9656019
Iberdrola Charging Station,Entrada SEAT Nord Martorell 08760 ES,41.503389,1.8969599999999998
Olivia Plaza Hotel,"Plaça de Catalunya, 19, 08002 Barcelona",41.3861894,2.1711552000000003
AECA Assessoria Energètica Catalana S.L.,"Av. de Barcelona, 221, 08222 Terrassa, Barcelona",41.5653085,2.0267258999999997
Punt recàrrega elèctrica cotxes i motos,"Passatge de les Moreres, 25280 Solsona, Lleida",41.9942477,1.5202746999999999
Estación de Barcelona-Sants Adif,"Plaça dels Països Catalans, 1, 7, 08014 Barcelona",41.378752,2.1398772999999998
Tienda Oceanis Eficiencia Energética,"Gran Via de les Corts Catalanes, 1151, Local 3, 08020 Casteldefels, Barcelona",41.41956,2.20725
La Maquinista,"Carrer de Potosí, 2, 08030 Barcelona",41.440843,2.198482
Estacíon de Barcelona-Estacio De França Adif,"Av. del Marquès de l'Argentera, S/N, 08003 Barcelona",41.3844336,2.1853245
Estación Naturgy Hospitalet-Botánica,"Carrer de la Botànica, 114, 08908 L'Hospitalet de Llobregat, Barcelona",41.3488755,2.1248706000000004
Estación de Barcelona-Passeig de Gracia Adif,"Passeig de Gracia - Esquina, C/ d'Aragó, S/N, 08007 Barcelona",41.392331,2.1646687
Barcelona-Sants,"Plaça dels Països Catalans, 1, 7, 08014 Barcelona",41.37899850000001,2.1399129
Barnasud,"Carrer del Progrés, 69, 08850 Gavà, Barcelona",41.29618320000001,2.0078674
Estación de Autobuses Barcelona Nord,"Carrer d'Alí Bei, 80, 08013 Barcelona",41.3947292,2.1826047
Martorell Enllaç,"Av. Comte de Llobregat, 12, 08760 Martorell, Barcelona",41.483973,1.9186808999999998
Hotel Verti,"Plaça Ajuntament, Carretera de Ribes, 5, 08520 Corró d'Avall, Barcelona",41.636853,2.297734
Estación de Servicio Repsol,"Av. Catalunya, 1, 08787 La Pobla de Claramunt, Barcelona",41.55344700000001,1.6758607
Estación de Autobuses de Barcelona Sants,08014 Barcelona,41.379715000000004,2.1389351000000003
Estació,43004 Tarragona,41.1115,1.2528920000000001
Estación de servicio Cepsa,"Carrer de les Corts Catalanes, 60, 25005 Lleida",41.627928000000004,0.6242101999999999
Aeropuerto Josep Tarradellas Barcelona-El Prat,"08820 El Prat de Llobregat, Barcelona",41.297445,2.0832941000000003
ETECNIC Energy & Mobility,"Av. dels Països Catalans, 38, 43206 Reus, Tarragona",41.155294899999994,1.0970628
Estación de servicio Cepsa,"Av. Carles Tolrà, 1, 7, 08348 Cabrils, Barcelona",41.52465,2.36911
Restaurant Can Boix de Peramola,"Can Boix, 3, 25790 Castell-llebre, Lleida",42.071333,1.2757049999999999
Tesla Store,"Carrer de la Metal·lúrgia, 38, 08038 Barcelona",41.3520315,2.1349848999999996
Estación de servicio Cepsa,"Passatge de la Marinada, 1, 3-5, 08799 Barcelona",41.3520545,1.7272823
Estación de servicio Cepsa,"Avenida La, Avinguda de la Granvia de l’Hospitalet, Km 4, 08907 L'Hospitalet de Llobregat, Barcelona",41.346705,2.109595
Estaciones de servicio Baseva,"Pol.Ind. La Ferreria, 08110 Montcada i Reixac, Barcelona",41.485222,2.178611
Estación de Servicio Repsol,"CR A-2 P.K. 543,10 D, 08719, Barcelona",41.618390399999996,1.5100542
Aparcamiento B:SM biotech,"Carrer del Dr. Aiguader, 88, 08003 Barcelona",41.3854718,2.1939727
Lugenergy Estación de carga,"Av. de los Hermanos Machado, 137, 46025 Valencia",39.4978749,-0.3826875
Estación de carga de vehículos eléctricos,"Carrer de José Pomer, 3, 46920 Mislata, Valencia",39.475418299999994,-0.41828919999999997
GiC Estación de carga,"Unknown, 46370 Cirve",39.4768898,-0.6150111999999999
Estación de carga de vehículos eléctricos,"46340 Requena, Valencia",39.48683270000001,-1.0975774
Estación carga EV,"Calle de Villajoyosa, 4, 46340 Requena, Valencia",39.4877119,-1.1017878
estacion de carga,"46711 Miramar, Valencia, Valencia",38.9483404,-0.1410664
Estación de carga de vehículos eléctricos,"46800 Xàtiva, Valencia",38.997079,-0.5270946
V2C Estación de carga,"Av. de los Hermanos Machado, 137, 46025 Valencia",39.4979436,-0.3824427
Punto de Recarga Parking Avenida del Oeste,"Carrer de l'Hospital, 1, 46001 València, Valencia",39.4708203,-0.3804635
Estacion de carga EV,"Av. del Deporte, 46300 Utiel, Valencia",39.5724794,-1.2108903
ENDESA Charging Station,"Carrer Meliana, 5, 46200 Paiporta, Valencia",39.42899999999999,-0.4099999
Estación de carga de vehículos eléctricos,"Carrer Meliana, 9, 46200 Paiporta, Valencia",39.42900770000001,-0.41245129999999997
Estación de carga de vehículos eléctricos,"46190 Riba-roja de Túria, Valencia",39.543105700000005,-0.5751427
Estación de carga EV,"Calle Escuelas San Antonio, 46390 San Antonio, Valencia",39.520117600000006,-1.1515327
Estación de carga de EV,"Unnamed Road, 46340, 46340, Valencia",39.4898665,-1.1085473
Estación de carga de vehículos eléctricos,"Arrabal Z.Valor 01-Comercial, 4, 46960 Aldaia, Valencia",39.4702201,-0.4873673
Tesla Supercharger Valencia,"Carrer de Leonardo da Vinci, 46980 Paterna, Valencia",39.542962200000005,-0.4515275999999999
EasyCharger Estación de carga,"46317 Villargordo del Cabriel, Valencia",39.52891629999999,-1.4335149
Estación de carga de vehículos eléctricos,"Plaça Castell, 46290 Alcàsser, Valencia",39.36995039999999,-0.445042
Estación de carga de vehículos eléctricos,"Ronda de Narcís Monturiol, 24, 46980 Paterna, Valencia",39.5508345,-0.46576049999999997
Estación de carga de vehículos eléctricos,"Av. Jaume I, 6, 46650 Canals, Valencia",38.9635318,-0.5842786999999999
Iberdrola Clientes Charging Station,"16, Av. del Mediterrani, 46529 Canet d'en Berenguer, Valencia",39.6791872,-0.21717150000000002
Easy Charger Estación de carga,"46317 Villargordo del Cabriel, Valencia",39.525932,-1.4369887
Tesla Destination Charger,"Avinguda de Navarro Reverter, 14, 46004 València, Valencia",39.470993,-0.366654
Estación de carga de vehículos eléctricos,"Carrer Pare Salvador Mollà, 22, 46135 Albalat dels Sorells, Valencia",39.5444594,-0.3468663
ENDESA Charging Station,"Av. Diputación, 11, 46810 Enguera, Valencia",38.97914,-0.6909499
Iberdrola Estación de carga,"Carrer Metge José Pérez Martínez, 1, 46160 Llíria, Valencia",39.6332084,-0.5922097
Estación de carga de vehículos eléctricos,"46980 Paterna, Valencia",39.5014181,-0.4469982
ENDESA Charging Station,"Carrer del Poeta Ricard Sanmartí, 8, 46020 València, Valencia",39.48999999999999,-0.359
ENDESA Charging Station,"Carrer Sant Antoni, 19, 46191 Vilamarxant, Valencia",39.57302,-0.6242599999999999
Tesla Destination Charger,"Plaça Manuel Sanchis Guarner, 1, 46006 València, Valencia",39.4575967,-0.37546929999999995
Estación de carga de vehículos eléctricos,"46970 Alacuás, Valencia",39.456715700000004,-0.4605734
Charge and Parking Estación de carga,"Carrer del Mirador, 10, 46725 Ròtova, Valencia",38.93437249999999,-0.25333360000000005
Eléctricos Vehículo Estación de Carga,"46170 Villar del Arzobispo, Valencia",39.7372501,-0.8214878999999999
Estación de Carga de Vehículos Eléctricos,"Carrer del Pare Antoni Salelles, 10, 46780 Oliva, Valencia",38.9215687,-0.11689460000000002
Charge and Parking,"Carrer Catarroja, 46200 Paiporta, Valencia",39.4248893,-0.4157795
ENDESA Charging Station,1 Polígono Sector 2 D Carcagente 46740 ES,39.11793000000001,-0.45311
Iberdrola Clientes Charging Station,"Av. Benjamín Franklin, 8, 46980 Paterna, Valencia",39.54753300000001,-0.45946499999999996
Charge and Parking,"Avinguda Rambleta, 9, 46470 Catarroja, Valencia",39.4026684,-0.40678990000000004
Fenie Energía Estación de carga,"Av. de la Senyoria, 10, 46722 Beniarjó, Valencia",38.93498599999999,-0.188993
Fenie Energia Charging Station,"Av. del País Valencià, 89, 03820 Cocentaina, Alicante",38.7413941,-0.4385902
Feníe Energía Charging Station,"Av. Albaida, 26, 46869 Atzeneta d'Albaida, Valencia",38.831064000000005,-0.499076
Fenie Energia Charging Station,"Plaza Mayor, 5, 46640 Mogente/Moixent, Valencia",38.874123,-0.7520359999999999
Fenie Energia Charging Station,"Carrer de les Madeixes, 308, 46870 Ontinyent, Valencia",38.82702020000001,-0.5858690999999999
Fenie Energia Charging Station,"Av. Regne de València, 36, 46722 Beniflà, Valencia",38.927859000000005,-0.189774
"EDP Comercializadora, SAU Charging Station","Avinguda de Les Moreres, 46500 Sagunt, Valencia",39.674211299999996,-0.2635329
Fenie Energia Charging Station,"Av. Mare Nostrum, 46, 46120 Alboraia, Valencia",39.489774700000005,-0.325428
"EDP Comercializadora, SAU Charging Station","CV-35, 46980, Valencia",39.529214200000006,-0.44165730000000003
Fenie Energia Charging Station,"Carrer de la Mare Maria Ràfols, 3, 46680 Algemesí, Valencia",39.193323,-0.43003800000000003
Punto de recarga E.S. ALZ-El Oliveral. Urbener-Bosch,"N-III Polígono el Oliveral, Riba-roja de Túria, Valencia",39.4726193,-0.5355329000000001
EVBox Charging Station,"Moll de Ponent, 1112, 46024 Valencia",39.449132,-0.324497
Fenie Energia Charging Station,"Calle Vía del Ferrocarril, 6, 46120 Alboraya, Valencia",39.499751399999994,-0.34635340000000003
Tesla Destination Charger,"Eugénia Viñes, 22 Carrer d, 22, 46011 València",39.466282,-0.324696
Feníe Energía Charging Station,"Carrer Marià Benlliure, 12, 46131 Bonrepòs i Mirambell, Valencia",39.517653,-0.36345
Fenie Energia Charging Station,"Carrer de la Casa d'Osca, 3, 46870 Ontinyent, Valencia",38.8586433,-0.5826854
EDP Estación de carga,"Carrer Benjamín Franklin, 46500 Sagunt, Valencia",39.671409999999995,-0.2641405
Punto recarga eléctrica coches y motos,"Ctra. Valencia Ademuz, 35, 46183 L'Eliana, Valencia",39.5776539,-0.529511
Endesa X Estación de carga,"C/ Horts, 72, 46500 Sagunt, Valencia",39.6795585,-0.2716779
EDP Charging Station,"CV-35, 46980 Paterna, Valencia",39.52923079999999,-0.4416938
IBERDROLA CLIENTES Charging Station,"Moll Sud, 1, 46024 València, Valencia",39.445908,-0.32507800000000003
Tesla Supercharger,"Autovía del Suroeste, Km . 200, 10350 Almaraz, Cáceres",39.7915144,-5.6955002
Tesla Destination Charger,"Autovía de Extremadura, Salida, 163, 10392 Isla de Valdecanas, Cáceres",39.837071,-5.379258
Iberdrola Charging Station,"Paseo de Extremadura, 2, 06260 Monesterio, Badajoz",38.093548,-6.276211
Tesla Supercharger,"06800 Mérida, Badajoz",38.921110799999994,-6.3757005
EasyCharger Estación de carga,"06200 Almendralejo, Badajoz",38.7099152,-6.400288700000001
ENDESA Charging Station,"Calle Extremadura, 13, 34004 Palencia",42.004862,-4.518477
Iberdrola Charging Station,"6, CM-5102, 45560 Oropesa",39.926884,-5.18534
Estacion de Carga de Vehiculos Eléctricos,"Calle Rio, 1, 45642 Cardiel de los Montes, Toledo",40.0627739,-4.653042
Estación de carga de vehículos eléctricos,"Av. de Elvas, S/N, 06006 Badajoz",38.8851783,-7.021799400000001
Estación de servicio Cepsa AVDA. EXTREMADURA,"Av. Extremadura, 15, 06800 Mérida, Badajoz",38.920492100000004,-6.3406037
Estación de Autobuses de Trujillo,"Av. de Extremadura, S/N, 10200 Trujillo, Cáceres",39.4513718,-5.881403
Estación de servicio Cepsa CALAMONTE,"AVDA. DE EXTREMADURA, 76, 06810 Calamonte, Badajoz",38.8944266,-6.386565200000001
Estación de Servicio Repsol,"Av. de Extremadura, 67, 06910 Granja de Torrehermosa, Badajoz",38.3048287,-5.5942777
Estación de Servicio Repsol,"Av. de Extremadura, S.N, 06850 Arroyo de San Serván, Badajoz",38.86095570000001,-6.454535799999999
Estación de servicio Cepsa,"Av. Extremadura, S/n, 06420 Castuera, Badajoz",38.729667,-5.545652
Centrowagen Audi Badajoz,"Av. Madrid-Lisboa, km399, 06008 Badajoz",38.8745699,-6.954619900000001
Centro Comercial El Faro,"El Faro del Guadiana Shopping Centre, Av. de Elvas, s/n, 06006 Badajoz",38.8838177,-7.022301499999998
Estación de Servicio Repsol,"N-5 Km. 254,80 D, 10200 Trujillo, Cáceres",39.448930700000005,-5.8815094000000006
Estacíon de Merida Adif,"Calle Cardero, S/N, 06800 Mérida, Badajoz",38.9213911,-6.343072900000001
Caceres,10195 Cáceres,39.461131,-6.385679
Plasencia,"10600 Plasencia, Cáceres",40.022282000000004,-6.0993970000000015
REPSOL,"Paseo de Extremadura, 45580 Calzada de Oropesa, Toledo",39.895689000000004,-5.332879
Centrowagen Volkswagen Badajoz,"Ctra. Madrid, 06008 Badajoz",38.8744977,-6.953446800000001
Talleres Órbita Atanes,"Avda de, Av. Extremadura, 125, 10460 Losar de la Vera, Cáceres",40.11999610000001,-5.598902
Estación de carga de vehículos eléctricos,"Av. Galicia, s/n, 32317 O Barco, Province of Ourense",42.4172136,-6.9975513
"EDP Comercializadora, SAU Charging Station","Av. de Galicia, 2, 33740 Tapia de Casariego, Asturias",43.5687179,-6.944178
Easycharger Estación de carga,"Rúa de Miguel Ferro Caaveiro, 85, 15707 Santiago de Compostela, A Coruña",42.8844839,-8.5129472
EasyCharger Estación de carga,"Rúa E, 27150, 27150, Lugo",43.1071861,-7.605576299999999
Tesla Supercharger,"El Bierzo, Camino Real, 1, 24318 Bembibre",42.623566499999995,-6.453114599999999
Iberdrola Charging Station,"Rúa Arquitecto Palacios, 25, 36340 Nigrán, Pontevedra",42.14288,-8.818901
Iberdrola Charging Station,"Rúa das Pontes, 4, 36350 Nigrán, Pontevedra",42.132869899999996,-8.795249
Iberdrola Charging Station,"Av. de Madrid, 124, 36214 Vigo, PO",42.220194,-8.706228999999999
Tesla Destination Charger,"Av. Infanta Elena, 213, 27003 Lugo",43.0371727,-7.5688405
EasyCharger Estación de carga,"49395 Cobreros, Zamora",42.0610924,-6.642711599999998
EasyCharger Estación de carga,"Camino de los Gallegos, 49630, Zamora",41.8261174,-5.3788634
EasyCharger Estación de carga,"Extrarradio Diseminados, 74, 47132 Tordesillas, Valladolid",41.5421864,-4.897175700000001
Iberdrola Charging Station,"Av. de Madrid, S/N, 36214 Vigo, PO",42.2154,-8.701267
Puntos de Recarga Mercadona,"27710, Lugo",43.540431899999994,-7.0629537
Estacion Carga VE Ibil Charging Station,"Calle de Alfonso XII, 2, 28014 Madrid",40.419264,-3.6889067000000004
Tesla Destination Charger,"Av. Dr. António Macedo 163, 4450-617 Leça da Palmeira, Portugal",41.194965,-8.689988999999999
Iberdrola Charging Station,"Estrada Vella de Madrid, 4, 36214 Vigo, Pontevedra",42.215272999999996,-8.701265
Finisterre Motor,"Avenida Finisterre, 326, 15010 A Coruña",43.3568583,-8.425587
Concesionario Oficial Hyundai | Hyupersa | Santiago,"A Coruña, Km. 58, 15703 Santiago de Compostela, C",42.903521000000005,-8.5181839
Concesionario Oficial Hyundai | Hyupersa | Ourense,"de Canedo, Ctra de Vigo, 26, 32001 Quintela, Ourense",42.3556854,-7.905260799999999
Estacíon de Vilagarcia De Arousa Adif,"Av. Doutor Moreira Casal, 20, 36600 Vilagarcía de Arousa, Pontevedra",42.601976,-8.7622537
Hotel - Apartamentos Spa Bosque Mar,"Calle Reboredo, 93, 36988, PO",42.478204999999996,-8.892745
Concesionario Oficial Hyundai | Hyupersa | Villagarcía,"Av. Pontevedra, 98, 36619 Vilagarcía de Arousa, PO",42.58442369999999,-8.742930300000001
Estación de A Coruña Adif,"Avenida del Ferrocarril, 2, 15007 A Coruña, C",43.3521165,-8.409936799999999
Estación de Santiago de Compostela Adif,"Rúa do Hórreo, 75 A, 15702 Santiago de Compostela, A Coruña",42.87097079999999,-8.544271199999999
Estacíon de Lugo Adif,"Praza Conde de Fontao, S/N, 27003 Lugo",43.0150924,-7.5521118000000005
Concesionario Oficial Hyundai | Hyupersa | Vigo,"Estrada Camposancos, 6, 36213 Vigo, Pontevedra",42.2052969,-8.7522039
Estación de Servicio Repsol,"Avenida de Galicia, 41, D, 27400 Monforte de Lemos, Lugo",42.519962400000004,-7.513412100000001
Redondela,"36800, Pontevedra",42.286004999999996,-8.619402000000001
Estación Naturgy San Cibrao,"Rúa Ricardo Martín Esperanza, nº 12, 32901 Reboredo, Ourense",42.2897324,-7.816631300000001
Vigo Guixar,"Rúa do Areal, 36201 Vigo, Pontevedra",42.2392617,-8.712034
Tumosa,"Avenida das Mariñas, 272, 15172 Perillo, A Coruña",43.3274086,-8.363390299999999
Ourense,"Praza Da Estacion, 32001 Ourense, Province of Ourense",42.3503961,-7.8728186
Concesionario Oficial ŠKODA | GADASA | A Coruña,"Avenida das Mariñas, 287, 15179 Oleiros, A Coruña",43.3279374,-8.3650583
A Gudiña,"32540 La Gudiña, Ourense",42.060644,-7.1325319999999985
Monforte de Lemos,"27400 Monforte de Lemos, Lugo",42.529591100000005,-7.5034855
Santiago-Turistico,"Rúa de Santiago del Estero, 75, A, 15702 Santiago de Compostela, C",42.870791100000005,-8.544719599999999
Estacíon de O Carballiño Adif,"Avenida O Vintecinco De Xullo, S/N, 32500 O Carballiño, Ourense",42.43144059999999,-8.068795
Viveiro,"27869 Vivero, Lugo",43.6569018,-7.6003276999999985
Estación De Servicio Galp,"Carretera N-550, 0 Pk 73 Polígono Ind La Picaraña, 15980 Esclavitud, C",42.79943799999999,-8.6490584
Canabal,"27440 Canaval, Lugo",42.482882000000004,-7.587733000000001
Estación de Servicio Repsol,"Av. Buenos Aires, S.N, 36500 DE, PO",42.6550326,-8.111703
Estación de servicio Cepsa,"Avda. Orillamar, 173, 36208 Vigo, PO",42.22528399999999,-8.745676
Estación de Servicio Repsol,"N-525, 291,3 IZ, 36500 Lalín, Pontevedra",42.665018200000006,-8.1215716
Estación de Servicio Repsol,"Av. de Portugal, S.N, 36700 Tui, PO",42.041425399999994,-8.6475254
Estación de Servicio Repsol,"Avenida do Concello, S.N, I, 36520 Agolada, Pontevedra",42.762601399999994,-8.0245205
Estación de servicio Cepsa,"N-120, km 660, 3, 36416 Pontevedra",42.19335419999999,-8.651765699999999
NACEX,"Av. Peirao Besada, 6, 36163 Poio, PO",42.430923799999995,-8.6634054
Estación de carga de vehículos eléctricos,"Paseo de la Castellana, 162, 28046 Madrid",40.45839,-3.6896475
Cepsa Comercial Galicia,"Travesía Coruña, 2, 36208 Vigo, PO",42.2229341,-8.7350177
Estación de servicio Cepsa,"Calle, Av. do Alcalde de Lavadores, 64, 36214 Vigo, PO",42.2214685,-8.696746000000001
NACEX,"Polígono Comercial Barreiros, Calle Vial G, 7, 32911 Ourense",42.2826654,-7.8562085999999995
NACEX,"Póligono del Tambre Calle D no23, 15890 Santiago de Compostela, A Coruña",42.9124896,-8.506754599999999
NACEX,"Pol. Ind. Ceao, Rúa da Industria, 41, 27003 Lugo",43.0475206,-7.571501399999999
Estación de servicio Cepsa,"Rúa Carretera de Castilla, 132, 142, 15570 Narón, C",43.498336200000004,-8.1978838
Bicicoruña plaza Pontevedra,"Pr. Pontevedra, 2, 15003 A Coruña",43.3679263,-8.4067448
NACEX,"Rúa de Severino Cobas, 49, 36214 Vigo, Pontevedra",42.225640500000004,-8.691886
Lugenergy Estación de carga,"Av. de los Hermanos Machado, 137, 46025 Valencia",39.4978749,-0.3826875
Gasolinera REPSOL Gasvive,"Av. de Madrid, 66, 36204 Vigo, PO",42.2243343,-8.7116291
Easycharger Estación de carga,"Calle Obispo Nicolás Castellanos, 1, Entreplanta C Izquierda, 34001 Palencia",42.013238799999996,-4.5337654
Estación de carga de vehículos eléctricos,"Paseo de la Castellana, 162, 28046 Madrid",40.45839,-3.6896475
Tesla Supercharger,"Av. Ada Lovelace, 23, 28906 Getafe, Madrid",40.2903543,-3.6963012
IONITY Charging Station,28042 Madrid,40.458578,-3.6166379999999996
Punto de recarga de Vehículos Eléctricos,28046 Madrid,40.43188019999999,-3.6891549
GiC - Gestion Inteligente de Cargas Charging Station,"Carga Pública, C\Card, Calle de Cardenal Marcelo Spínola, 6, 28016 Madrid",40.466738899999996,-3.670647
Iberdrola Estación de carga,"28805 Alcalá de Henares, Madrid",40.50420379999999,-3.3305873999999998
GiC - Gestion Inteligente de Cargas Charging Station,"Calle Cerro de la Plata, 4, 28007 Madrid",40.39992,-3.6751419999999997
GiC - Gestion Inteligente de Cargas Charging Station,"20 Av. Niceto Alcalá Zamora Cirve, 28050",40.493894,-3.648247
GiC - Gestion Inteligente de Cargas Charging Station,"Carga Pública, Av. de Machupichu, 105, 28043 Madrid",40.464878999999996,-3.6361489999999996
Iberdrola Clientes Charging Station,"20, Calle Areneros, 28521 Rivas-Vaciamadrid, Madrid",40.3306494,-3.5243116999999997
ENDESA Charging Station,"Calle Edgar Neville, 5, 28223 Pozuelo de Alarcón, Madrid",40.394374,-3.798332
Recarga eléctrica de coches y motos,"Calle Cortada, 10, 28016 Madrid",40.4672977,-3.6699391
Iberdrola Clientes Charging Station,"Av. de Pío XII, 4, 28016 Madrid",40.462590000000006,-3.675238
Iberdrola Clientes Charging Station,"Calle las Pozas, 183, 28200 San Lorenzo de El Escorial, Madrid",40.60278100000001,-4.127734999999999
ENDESA Charging Station,"Plaza de San Cayetano, s/n, 28028 Madrid",40.434275899999996,-3.670748
Iberdrola Charging Station,"Calle de Juan Bravo, 13, 28006 Madrid",40.433329,-3.682339
ENDESA Charging Station,"Av. del General Perón, 21, 28020 Madrid",40.452523,-3.695641999999999
ENDESA Charging Station,"Av. del General Perón, 38, 28020 Madrid",40.452855,-3.6933
Iberdrola Charging Station,"C. de Rafael Calvo, 31, 28010 Madrid",40.434694,-3.6921739999999996
ENDESA Charging Station,"Calle de Eraso, 21, 28028 Madrid",40.434306,-3.670778
Estacion de Carga de Vehiculos Eléctricos,"Calle Rio, 1, 45642 Cardiel de los Montes, Toledo",40.0627739,-4.653042
Enchufauto Estación de carga,"Calle de Diego de León, 47, 28006 Madrid",40.4347985,-3.6785276
Enchufauto - Showroom Clientes Puntos de recarga para vehículos eléctricos - Madrid.,"Av. de Brasil, 6, 28020 Madrid",40.4541834,-3.6931089
Recarga eléctrica de coches y motos,"Calle de Goya, 36, 28001 Madrid",40.424886,-3.681083
Recarga eléctrica de coches y motos,"Calle de Sta Engracia, 117, 28010 Madrid",40.4382029,-3.7004017
emovili,"nº 27 Edificio I Planta 3ª Oficina 1D, Av. de Valdelaparra, 28108 Alcobendas, Madrid",40.5376659,-3.6463318
Estación Naturgy Sanchinarro,"Av. de Francisco Pi y Margall, 5, 28050 Madrid",40.484855700000004,-3.6458831
Adif Vicálvaro Clasificación,28032 Madrid,40.4161062,-3.581253
Estación de Madrid-Abroñigal,"C. de Méndez Álvaro, 84, 28053 Madrid",40.3874617,-3.673554499999999
Asociación de Empresarios de Estaciones de Servicio Comunidad de Madrid,"Plaza Cdad. de Viena, 9, 28040 Madrid",40.4473922,-3.7163917
Estación Naturgy Vallecas-C.T.M.,"Centro Transportes, Av. Eje Central, 7, 28053 Madrid",40.3639308,-3.6560779
Estación de Madrid-Chamartín,28036 Madrid,40.4718908,-3.6825565000000005
Estación de Madrid-Puerta de Atocha Adif,"Glorieta Emperador Carlos V, s/n, 28045 Madrid",40.406417700000006,-3.6903845
Madrid - Atocha Cercanias,28045 Madrid,40.4064655,-3.6896451
Bicimad,"Plaza del Cordón, 28005 Madrid",40.414193100000006,-3.710328499999999
Deposito 13 Metro Madrid Villaverde,"Av. Real de Pinto, s/n, 28021 Villaverde, Madrid",40.3306652,-3.7208247
Bicimad,"Hortaleza, 28004 Madrid",40.4251906,-3.6977714999999995
Bicimad,"Ribera de Curtidores, 28005 Madrid",40.4053153,-3.7071259
Estación Naturgy Villaverde,"Calle de Piñuecar, 53, 28021 Madrid",40.335792700000006,-3.7178366
Estación Naturgy Vicálvaro,"Calle de Rivas, 14, 28052 Madrid",40.39808,-3.58909
Estación Naturgy Aravaca,"Calle Rafael Botí, 5, 28023 Madrid",40.46352,-3.8047302000000003
Gran Vía,28013 Madrid,40.419852399999996,-3.7016062000000005
Párking de motos Paseo de la Castellana 259,"Paseo de la Castellana, 259, 28046 Madrid",40.47882429999999,-3.6862531
Metro Gran Vía Cerrado por obras,"Plaza del Callao, 28013 Madrid",40.419990000000006,-3.70212
Estación Naturgy Fuembellida,"Calle Fuembellida, 3, 28022 Madrid",40.4493689,-3.5731906
Tarjeta Transporte Público,"Plaza Moncloa, 1, 28008 Madrid",40.4353387,-3.7185718
Metro de Madrid - Depósito 9 Zona 4,28050 Madrid,40.4838592,-3.6587227999999996
Estación de Servicio Repsol - Barajas II,"CR N-2 P.K. 12,60 D, 28042 Madrid",40.449141100000006,-3.565418
Estación De Delicias,28045 Madrid,40.40027,-3.6938800000000005
EMT Centro de Operaciones Sanchinarro,"Av. de Niceto Alcalá Zamora, 4, 28050 Madrid",40.4840115,-3.6475357
Paco de Lucía,"Calle del Monasterio de Las Huelgas, 28034 Madrid",40.4996245,-3.7091512000000004
Estación de Avenida de América,28002 Madrid,40.438320000000004,-3.67645
Parking Saba Metro Nuevos Ministerios,"Paseo de la Castellana, 100, 28046 Madrid",40.4430008,-3.6913347
Lugenergy Estación de carga,"Av. de los Hermanos Machado, 137, 46025 Valencia",39.4978749,-0.3826875
Plenilunio,"Calle de Aracne, s / n, 28022 Madrid",40.446969,-3.587343
TELEFURGO MADRID CTM - Alquiler de Furgonetas,"Avda. del Eje Central, CTM Nave S5 km. 3.500, 28053 Madrid",40.36452130000001,-3.6540581
Estación de Servicio Repsol,"Paseo de Santa María de la Cabeza, 18, 28045 Madrid",40.4058583,-3.6951926
GasAuto Repsol AutoGas,"C, Paseo de la Ermita del Santo, 80, 28019 Madrid",40.399608,-3.7329736999999987
Gasolinera Repsol,"Calle Alto del Retiro, SN, 28051 Madrid",40.3675627,-3.5884445
Estación de Servicio Repsol,"Calle Paseo Acacias, 8 DE, 28005 Madrid",40.4044159,-3.705365
Iberdrola Estación de carga,"Calle Bebricio, 71, 26500 Calahorra, La Rioja",42.306587,-1.9713310000000002
Iberdrola Clientes Charging Station,"Av. de Burgos, 49, 26006 Logroño, La Rioja",42.4615534,-2.4692679
Punto de carga para vehículos eléctricos,"Av. de La Rioja, 14, 26001 Logroño, La Rioja",42.4639505,-2.4468479
Fenie Energía Estación de carga,"26330, La Rioja",42.53985000000001,-2.7785177000000005
Recarga eléctrica de coches y motos,"Calle Prado Viejo, 70, 26007 Logroño, La Rioja",42.45278829999999,-2.4717361
Tesla Destination Charger,"Calle Lérida, 1, 26006 Logroño, La Rioja",42.462715,-2.4205330000000003
Tesla Destination Charger,"Av. Vizcaya, 8, 26200 Haro, La Rioja",42.584482,-2.846937
Fenie Energia Charging Station,"Paseo San Julián, 8, 26300 Nájera, La Rioja",42.41599799999999,-2.7313679
Cargador coches de bateria,"Paseo San Julián, 4, 26300 Nájera, La Rioja",42.416844399999995,-2.7317457000000003
Tesla Destination Charger,"Paseo de la Constitucion, 97, 26580 Arnedo, La Rioja",42.2245739,-2.108609
ENDESA Charging Station,"Av. Gran Vía Juan Carlos I, 26B, 26001 Logroño, La Rioja",42.463955,-2.44955
Iberdrola Charging Station,"Calle de Gregoria Artacho, 37, 26350 Cenicero, La Rioja",42.48172599999999,-2.6480029999999997
ENDESA Charging Station,"Carrer de la Rioja, 1, 08227 Terrassa, Barcelona",41.559228000000004,2.037372
IBIL Charging Station,"Portal de Elorriaga Kalea, 17, 01003 Gasteiz, Araba",42.8494606,-2.6485874
Iberdrola Clientes Charging Station,"Calle Carlos VII, 22, 31200 Estella, Navarra",42.66445,-2.03245
Tesla Destination Charger,"Garberako, 1, 20017 Donostia-San Sebastian, SS",43.3091113,-1.9438083
IBIL Charging Station,"Local, Carr. Zaragoza, 20, 31500",42.0355435,-1.5885234
IBIL Estación de carga,"Prudencio Maria Verastegui Kalea, 1, 01002 Gasteiz, Araba",42.84913479999999,-2.6664082000000002
IBIL Charging Station,"Herrandarren Kalea, 17, 01003 Gasteiz, Araba",42.84850489999999,-2.6654953
IBIL Charging Station,"12 Plaza Norberto Resa, 01004 Gasteiz",42.841,-2.6666
Tesla Destination Charger,"Av. Infanta Elena, 213, 27003 Lugo",43.0371727,-7.5688405
IBIL Charging Station,"Azkue Kalea, 1, 48902 Barakaldo, Bizkaia",43.290411999999996,-2.988979
Logroño,"Avenida de España, 1, 26003 Logroño, La Rioja, La Rioja",42.4604484,-2.4451785
Estacíon de Logroño Adif,"Av. de Colón, 83, 26003 Logroño, La Rioja",42.4577319,-2.4409028999999998
Grupo Arnedo,"Av. del Ebro, 9, 26160 Agoncillo, La Rioja",42.435487,-2.2796662999999997
Estacíon de Haro Adif,"Calle Estación del Ferrocarril, S/N, 26200 Haro, La Rioja",42.5836265,-2.8492737
ESTACIONES ARNEDO,"N-232, KM. 367, 26510 Pradejón, La Rioja",42.319129,-2.0514346000000003
Estación de Servicio Petronor - Repsol,"E.S, AU AP-68 P.K. 100,00 D, 26340 San Asensio, La Rioja",42.511595899999996,-2.7543182999999996
Estacíon de Alcanadre Adif,"Calle Ctra. Estación, 49, 26509 Alcanadre, La Rioja",42.4074484,-2.1220287
Estación de servicio Cepsa,"P.I. Cantabria I, Av. Mendavía, 14, 26006 Logroño, La Rioja",42.472615999999995,-2.4169633999999998
Estación de servicio Cepsa,"Polígono Industrial I-9 parcela 18 bis, Ctra. Logroño, Km 1, 26142 Villamediana de Iregua, La Rioja",42.447571999999994,-2.418637
Estación de servicio Cepsa,"N-232, Pk 416.1, 26370 Navarrete",42.439694,-2.5312360000000003
Estación de Servicio Repsol,"CR LO-20 P.K. 10,00 D, 26007 Logroño, La Rioja",42.4542539,-2.5041322999999998
Haro,"26200, La Rioja",42.583635,-2.849396
Estación de servicio Cepsa,"Carretera de Lerma, Pk 376, 26320 Baños de Río Tobía, La Rioja",42.351808,-2.7533689999999997
Estación de servicio Cepsa,"Camino Berceo, s/n, 26320 Baños de Río Tobía, La Rioja",42.333749,-2.763892
Estacíon de Rincon De Soto Adif,"Calle Estacion Ferrocarril, 2, 26550 Rincón de Soto, La Rioja",42.2301756,-1.8477525000000001
Grupo Logístico Arnedo,"Av. del Ebro, 9, 26160 Agoncillo, La Rioja",42.437397,-2.2827436000000003
Taxi Jose Haro,"Plaza Castañares de Rioja, 26200 Haro, La Rioja",42.5732888,-2.8527583
Estación de Servicio Repsol,"Cr, LR-113, 44, I, 26320 Baños de Río Tobía, La Rioja",42.3281448,-2.7609249
Estación de Servicio Repsol,"CR N-111 P.K. 292,00 D, 26123 Villanueva de Cameros, La Rioja",42.16631339999999,-2.6500101000000003
Estación de Servicio Repsol,"Cr N-120, 23 D, 26315 Tricio",42.411644700000004,-2.7011844
NACEX,"Calle Torremuña, 4, 26005 Logroño, La Rioja",42.46169949999999,-2.4549066
Nuevo servicio para 6 pasajeros + equipajes TAXI JOSÉ LUIS 24 H 6 pasajeros + equipajes CALAHORRA,"Calle Navarra, 11, 26500 Calahorra, La Rioja",42.309027,-1.9739849999999999
Estación de servicio Cepsa,"Avda. De Logroño, 20, 26580 Arnedo, La Rioja",42.2293783,-2.0940911
Ecociudad del transporte Grupo Arnedo,"Carretera Nacional, 232 km 367, 26511 El Villar de Arnedo",42.318637700000004,-2.0525105
ITV Logroño Tüv Süd,"Pol. Ind. Cantabria I, Calle Soto Galo, 8, 26009 Logroño, La Rioja",42.4690331,-2.4110332999999997
Estación de Autobuses de Logroño,"26003 Logroño, La Rioja",42.459959399999995,-2.4446677
ITV Nájera Tüv Süd,"A-12, Salida 110, 26300 Nájera, La Rioja",42.4294219,-2.7157075
Hertz - Logroño,"Auto Urbion Car Dealer, Av. de Burgos, 64, 26006 Logroño, La Rioja",42.4620475,-2.4715036
XPO LOGISTICS,"97-, Calle Rivera, 103, 26151 Arrúbal, La Rioja",42.4302583,-2.2584736
ITV Logroño - Polígono de Cantabria Red Itevelesa,"Pol. Ind. Cantabria I, Calle Barriguelo, 6, 26006 Logroño, La Rioja",42.469389899999996,-2.412632
Alfaro,"26540, La Rioja",42.186525,-1.747985
Hertz - Logrono - Leroy Merlin,"c/ Prado Viejo E-F, 26007 Logroño, La Rioja",42.4556021,-2.4718713
ITV Logroño - Avda. de Burgos Red Itevelesa,"Av. de Burgos, 109, 111, 26007 Logroño, La Rioja",42.4600352,-2.4757325
NACEX,"Calle Palomares, Casa Blanca Pol., 29, 01321, Álava",42.48984309999999,-2.4829442999999998
"Sendaviva, Parque de la Naturaleza de Navarra","Carretera Virgen del Yugo, s/n, 31513 Arguedas, Navarra",42.1883773,-1.5796341999999999
IBIL Charging Station,"Av. Dr. Pedro Guillén, s/n, 30100 Espinardo, Murcia",38.0052588,-1.145225
Fenie Energia Charging Station,"Calle Dr. Mesa del Castillo, 6, 30010 Murcia",37.96957940000001,-1.1287120000000002
Estación de carga de vehículos eléctricos,"Calle San Antón, 19, 30009 Murcia",37.99047410000001,-1.1405377
Iberdrola Estación de carga,30008 Murcia,37.99306869999999,-1.1305281
Tesla Supercharger,"Nueva Condomina, Autovía A-7, Km. 760, 30110 Churra, Murcia",38.038067600000005,-1.1493479
Iberdrola Charging Station,"Av. Juan Carlos I, 77, 30100 Espinardo, Murcia",38.011431,-1.150188
Iberdrola Charging Station,"Av. de los Pinos, 7, 30009 Murcia",37.997163,-1.138425
Tesla Destination Charger,"Calle Madre Paula Gil Cano, 30009 Murcia",38.002559000000005,-1.142895
Iberdrola Charging Station,"Av. de la Marina Española, 14, 30007 Murcia",38.002526,-1.128325
Iberdrola Charging Station,"Carril Condomina, 3, 30006 Murcia",37.987491999999996,-1.114947
Iberdrola Clientes Charging Station,"Av. Don Juan de Borbón, 3, 30110 Murcia",38.027460999999995,-1.1458469999999998
ENDESA Charging Station,"Calle Torre Álvarez, 3, 30007 Murcia",37.99675999999999,-1.135858
Feníe Energía Charging Station,"Av. Río Segura, 6, 30002 Murcia",37.9816042,-1.1285008
Tesla Destination Charger,"Av. Primero de Mayo, 5, 30006 Murcia",37.98975,-1.116793
ENDESA Charging Station,4 Plaza Dentistas Murcianos Murcia 30007 ES,37.998734999999996,-1.1382940000000001
Feníe Energía Charging Station,"Plaza Circular, 9, 30008 Murcia",37.993275,-1.130651
Feníe Energía Charging Station,"Paseo del Teniente Flomesta, 30002 Murcia",37.983018,-1.130015
Iberdrola Charging Station,"Av Marqués de los Vélez, 25, 30008 Murcia",37.995647,-1.129383
Iberdrola Charging Station,"Av. Intendente Jorge Palacios, 25, 30003 Murcia",37.98280099999999,-1.120074
Iberdrola Charging Station,"Calle Gutiérrez Mellado, 1, 30008 Murcia",37.990677000000005,-1.1277059999999999
Estación de carga de vehículos eléctricos,"Av. Víctor Garrigos, 9, 30009 Murcia",38.0327523,-1.1487945
Iberdrola Charging Station,"Av. de la Libertad, 1, 30009 Murcia",37.990533,-1.134187
Iberdrola Charging Station,"Calle Torre de la Marquesa, 1, 30008 Murcia",37.992776899999996,-1.133844
Feníe Energía Charging Station,"Calle Jaime I el Conquistador, 4, 30008 Murcia",37.989396899999996,-1.131673
ENDESA Charging Station,"2 Travesía, Calle Torre Álvarez, 1, 30007 Murcia",37.997741,-1.1360860000000002
Estación de carga de vehículos eléctricos,"C.C. Nueva Condomina, Local A 51-50, Autovía del Mediterráneo, Km 760, 30110 Churra",38.03844410000001,-1.1492679
Tesla Destination Charger,"Av. Juan de Borbón, s/n, 30110 Murcia",38.032573000000006,-1.1488528999999998
Charge and Parking Estación de carga,"Plaza de España, 30530 Cieza, Murcia",38.23847019999999,-1.4223816999999999
Endesa Estación de carga,"Salida 606, Autovía del Mediterráneo, 30848",37.793808,-1.428134
Estación de carga de vehículos eléctricos,"N-332, 119-117, 30720 San Javier, Murcia",37.8221201,-0.8125336999999999
Fenie Energia Charging Station,"Calle Dr. Mesa del Castillo, 24, 30010 Murcia",38.102925,-0.8499040000000001
Endesa Estación de carga,"Calle Mallorca, 21, 30730 San Javier, Murcia",37.7951474,-0.8385684000000001
Tesla Destination Charger,"68, 30628 Paraje La Matanza, Murcia",38.14407,-1.072401
Porsche Estación de carga,"33 Diseminado Salinas, 30740 San Pedro del Pinatar",37.819125,-0.7579507000000001
Iberdrola Charging Station,"km 423 Carretera Madrid, 30320 Cartagena",37.7672809,-1.070244
ENDESA Charging Station,"30848 Alhama de Murcia, Murcia",37.7957601,-1.4287996
Tesla Destination Charger,"S/N Carretera de Atamaría, Carretera de Atamaría, S/N, 30389 Los Belones, Murcia",37.604401,-0.8027409999999999
Iberdrola Estación de carga,"Calle a, 16, 30370 Cabo de Palos, Murcia",37.627557,-0.7101124999999999
Iberdrola Charging Station,"Calle el Limonero, 2B, 30850 Totana, Murcia",37.775191,-1.4537440000000001
Iberdrola Charging Station,"Ronda de Levante, 55, 30320 Fuente Alamo, Murcia",37.722874,-1.166117
Iberdrola Charging Station,"Pasaje Guerreros, 39, 30334, Murcia",37.732096000000006,-1.22813
Iberdrola Charging Station,"Polígono Ascoy, 11B, 30530 Cieza, Murcia",38.259409000000005,-1.433424
Iberdrola Charging Station,"Calle Dr. Cortezo, 2, 30740 San Pedro del Pinatar, Murcia",37.833727,-0.7901819999999999
Tesla Destination Charger,"Av. Príncipe Felipe, 44, 30710 Las Lomas del Rame, Murcia",37.728105,-0.8702209999999999
ENDESA Charging Station,"Av. Luis Manzanares, 1, 30700 Torre-Pacheco, Murcia",37.742228000000004,-0.95973
ENDESA Charging Station,"Calle Montevideo, 16, 30300 Cartagena, Murcia",37.627373999999996,-0.986034
IONITY Estación de carga,"Diseminado Esparragal, 1, 30890 Puerto Lumbreras, Murcia",37.5758429,-1.8012293999999998
EDP Charging Station,"Calle Conducto, 34, 30201 Cartagena, Murcia",37.6025,-0.98878
Tesla Destination Charger,"Castillo, s/n Calle del, 30800 Lorca",37.6779439,-1.7041490000000001
Iberdrola Charging Station,"1470, N-340a, 04410 Benahadux",37.655001,-1.711529
Iberdrola Charging Station,"Av. de la Constitución, 101, 30400 Caravaca de la Cruz, Murcia",38.097796,-1.8664580000000002
Iberdrola Charging Station,"Av. Juan Carlos I, 2, 30400 Caravaca de la Cruz, Murcia",38.102619,-1.8668189999999998
Estación de carga de vehículos eléctricos,"Av. Justo Quesada, 6099, 30710 Los Alcázares, Murcia",37.766186299999994,-0.8428959999999999
ENDESA Charging Station,"Calle Galileo, 226, 30008 Murcia",37.62738,-0.98514
Estación de Carga de Vehículos Eléctricos,"Paseo Alfonso XIII, 30203 Cartagena, Murcia",37.60692279999999,-0.9823205
Estación de Carga de Vehículos Eléctricos,"Calle 1 Sector Rnp, 4E, 30818, Murcia",37.6634994,-1.6955685
Estación de Autobuses de Murcia,"Calle Sierra Pila, 30005 Murcia",37.9862451,-1.1395345
inQuo - Ingeniería - Eficiencia Energética,"Paseo de Florencia, 21, 30010 Murcia",37.96902120000001,-1.129896
Estación de Vehículo Eléctrico,"Plaza de Carruajes, 30800 Lorca, Murcia",37.6719381,-1.6966689
elektromos töltőállomás,"Av. Cartagena, 14, 30710 Los Alcázares, Murcia",37.7603931,-0.8451006999999999
Estación de carga de vehículos eléctricos,"Av. Pamplona, 2, 31192 Mutilva Baja, Navarra",42.789829,-1.6176976
Iberdrola Estación de carga,"Av. San Ignacio, 10, 31002 Pamplona, Navarra",42.8140125,-1.6430653000000002
Estación de carga de vehículos eléctricos,"31013 Berriozar, Navarra",42.8317179,-1.6692509999999998
Iberdrola Clientes Charging Station,"Av. Juan Pablo II, 4, 31006 Pamplona, Navarra",42.8041,-1.6280000000000001
Feníe Energía Estación de carga,"Calle Zaldibide, 2, 31191 Salinas de Pamplona, Navarra",42.753007700000005,-1.6498365000000002
ENDESA Charging Station,"Av del Este, 1, 31119 Noáin, Navarra",42.732734,-1.6132469999999999
Iberdrola Clientes Charging Station,"Ctra. Corella, 31500 Tudela, Navarra",42.06233100000001,-1.6203530000000002
Endesa Estación de carga de vehículos eléctricos,"Av. San Ignacio, 4, 31002 Pamplona, Navarra",42.815243,-1.6432490000000002
Estación de carga de vehículos eléctricos,"Calle Soto Aizoáin, 2-064, 31013 Pamplona, Navarra",42.83447750000001,-1.6793672999999998
Estación de carga,"Calle Garajonai, 31621 Sarriguren, Navarra",42.81324559999999,-1.5963747
IBIL Charging Station,"NA-4104, 31892, Navarra",42.8626839,-1.7441425
Fenie Energía Estación de carga,"Plaza la Cruz, 22, 31370 Falces, Navarra",42.387694,-1.7938817999999999
Estación de carga de VE Mercadona,"31200 Estella, Navarra",42.6545365,-2.0267147
Iberdrola Estación de carga,"Calle Esquíroz, 31007 Pamplona, Navarra",42.8079581,-1.6492792
Fenie Energia Charging Station,"31191 Galar, Navarra",42.7882027,-1.6376205
Recarga eléctrica coches y motos,"Av. San Ignacio, 10, 31002 Pamplona, Navarra",42.8140113,-1.6430723000000003
Iberdrola Clientes Charging Station,"Calle Carlos VII, 22, 31200 Estella, Navarra",42.66445,-2.03245
Estacion F.f.c.c.adif,"Calle la Constitución, 3, 31530 Cortes, Navarra",41.9148292,-1.4203195
Feníe Energía Estación de carga,"C. Ntra. Sra. de la Purificación, 89, 31195 Berrioplano, Navarra",42.853953999999995,-1.691986
Iberdrola Clientes Charging Station,"Av. San Ignacio, 10, 31002 Pamplona, Navarra",42.814018,-1.6430839
Tesla Destination Charger,"Aientsa Auzoa, 50, 31790 Arantza, Navarre",43.18927499999999,-1.7438865000000001
Fenie Energia Charging Station,"Cuenca de, 31191 Pamplona, Navarra",42.7861477,-1.6322386
IBIL Charging Station,"Local, Carr. Zaragoza, 20, 31500",42.0355435,-1.5885234
Recarga eléctrica coches y motos,"31013 Berriozar, Navarra",42.831711999999996,-1.6692533
Tesla Destination Charger,"km 7.7 Carretera N121C, Carr. Tudela - Tarazona, N121C, 31520 Cascante",42.008539,-1.6637849999999998
"Cargador VE AC 7,4kW","Unnamed Road, 31008, 31008, Navarra",42.8119932,-1.6642336
IBIL Charging Station,"Calle Soto Aizoáin, 1-603, 31013 Pamplona, Navarra",42.8343715,-1.6793174
Iberdrola Charging Station,POLIGONO 24 61 Tudela 31500 ES,42.121621999999995,-1.6748939999999999
Iberdrola Charging Station,"Calle Canal de Tauste, 3, 31500 Tudela, Navarra",42.040708,-1.5894979999999999
Punto de Recarga Ingetram,"31620 Gorráiz, Navarra",42.8226771,-1.5826143
Cargador VE,"Ctra. Pamplona-Huarte, Km 5, 31620 Olaz, Navarra",42.81944410000001,-1.5868951
Iberdrola Charging Station,"Leitza - Doneztebe errepidea, 31744",43.134362,-1.690074
Fenie Energia Charging Station,"Av. Pamplona, 2, 31192 Mutilva Baja, Navarra",42.789814899999996,-1.6177534
Feníe Energía Charging Station,"Calle el Hoyo, 31230 Viana, Navarra",42.516121000000005,-2.37187
Feníe Energía Charging Station,"Calle Irigaray, 2, 31192 Badostáin, Navarra",42.798755,-1.596324
Cargador VE 50kw,"Av. Juan Pablo II, 31006 Pamplona, Navarra",42.804111299999995,-1.627987
Feníe Energía Charging Station,"Calle Urbicain, 2, 31620 Gorráiz, Navarra",42.822753000000006,-1.582697
Fenie Energia Charging Station,"Carr. Barbarin, 42, 31243 Arróniz, Navarra",42.58919600000001,-2.096009
Iberdrola Estación de carga,"Calle de Arcadio María Larraona, 1, 31008 Pamplona, Navarra",42.811918,-1.6642970000000001
Feníe Energía Charging Station,"Carretera, NA-134, 38, 31560 Azagra",42.311389,-1.9008330000000002
SmartMobility Iberdrola,"Ctra. Corella, 2, 31500 Tudela, Navarra",42.062333100000004,-1.6200549
Recarga Eléctrica de Vehículos,"Calle Urbasa, 129, 31621 Sarriguren, Navarra",42.81062499999999,-1.5868917
EVBox Charging Station,"Av. de Sancho El Fuerte, 75, 28046 Pamplona, Navarra",42.811258,-1.660612
Feníe Energía Charging Station,"NA-8107, 31620 Olaz, Navarra",42.8194204,-1.5867069999999999
Feníe Energía Charging Station,"Calle el Angulo, 2, 31171 Ororbia, Navarra",42.816299,-1.747002
Feníe Energía Charging Station,"Calle Urbasa, 129, 31621 Sarriguren, Navarra",42.810615000000006,-1.5869149999999999
Fenie Energia Charging Station,"San Miguel Karrika, 3, 31829 Lizarraga, Navarre",42.8735609,-2.0358511999999997
Iberdrola Charging Station,"Geltoki Kalea, 34, 31809 Olazti, Navarre",42.88366,-2.17921
Iberdrola Charging Station,"Av. Zaragoza, 20, 31397 Campanas, Navarra",42.688371999999994,-1.6518488999999998
Tesla Destination Charger,"Parque Senda Viva, 31513 Arguedas, Navarra",42.18844800000001,-1.579636
ENDESA Charging Station,"31500 Tudela, Navarra",42.076146,-1.642569
Iberdrola Charging Station,"Carretera Guipúzcoa Gipuzkoarako Errepidea, 32A, 31195 Aizoáin, Navarra",42.84359,-1.6816900000000001
Tesla Destination Charger,"Carretera de Ejea Km 1,5, NA-125, 31500 Tudela",42.078653100000004,-1.5657311
Tesla Destination Charger,"Calle Real, s/n, 31110 Noáin, Navarra",42.764893,-1.633657
Tesla Destination Charger,"NA-2113, 31410 Yesa, Navarra",42.635954,-1.171478
ENDESA Charging Station,"Calle Emilio Arrieta, s/n, 31002 Pamplona, Navarra",42.815466,-1.638443
Tesla Destination Charger,"Calle Nueva, 20, 31001 Pamplona, Navarra",42.817386000000006,-1.645072
Tesla Destination Charger,"Calle Taconera, 1, 31001 Pamplona, Navarra",42.815836,-1.649145
Tesla Destination Charger,"Km. 42 Ctra. Pamplona - Valcarlos, 31694 Espinal, Navarra",42.97309320000001,-1.35233
be.ENERGISED Charging Station,AP-15 km 78 Imárcoain 31119 ES,42.73237899999999,-1.618726
IBIL Estación de carga,"Prudencio Maria Verastegui Kalea, 1, 01002 Gasteiz, Araba",42.84913479999999,-2.6664082000000002
IBIL Estación de carga,"48903 Baracaldo, Vizcaya",43.2855362,-2.9957147999999996
Estación de carga vehículos,"Zankoeta Kalea, 3A, 48013 Bilbo, Bizkaia",43.2587222,-2.9477397
IBIL Gestor de Carga de VE S.A. Charging Station,"Erribera Etorbidea, 48902 Barakaldo, Bizkaia",43.293090899999996,-3.006481
EasyCharger Estación de carga,"09200 Miranda de Ebro, Burgos",42.688548700000005,-2.9533967999999997
Estación de carga de vehículos eléctricos,"20212 Olaberría, Gipuzkoa",43.0278537,-2.2041555
Iberdrola Clientes Charging Station,"Urartea Kalea, 23, 01010 Gasteiz, Araba",42.864056299999994,-2.7124726000000003
IBIL Charging Station,"Begoñako Andra Maria Kalea, 45, 48006 Bilbo, Bizkaia",43.259088,-2.9143276
Iberdrola Clientes Charging Station,"Barrena Kalea, 19, 20600 Eibar, Gipuzkoa",43.19000399999999,-2.454243
Iberdrola Clientes Charging Station,"Elcano Kalea, 9, 48008 Bilbo, Bizkaia",43.26235399999999,-2.934526
ENDESA Charging Station,"Ventorro Kalea, 3, 01207, Araba",42.864064899999995,-2.321557
Estación de carga de vehículos eléctricos,"20004 San Sebastián, Gipuzkoa",43.3202505,-1.9839598999999999
Estación de carga de vehículos eléctricos,"20001 San Sebastián, Gipuzkoa",43.323935299999995,-1.9717761000000003
Iberdrola Estación de carga,"Marqués de Arriluce e Ibarra Kalea, 3006, 48992 Getxo, Bizkaia",43.3403161,-3.0162236
Estación Carga Vehículos Eléctricos,"Tartanga Kalea, 28, 48950 Altzaga, Bizkaia",43.306994,-2.9736385
Iberdrola Clientes Charging Station,"Begiristain Doktorea Pasealekua, 75, 20014 Donostia, Gipuzkoa",43.297227,-1.9662419999999998
IBIL Charging Station,"Portal de Elorriaga Kalea, 17, 01003 Gasteiz, Araba",42.8494606,-2.6485874
Wenea Estación de carga,"Arraiz Bidea, 116, 48002 Bilbo, Bizkaia",43.2415141,-2.9604141
IBIL Charging Station,"Minasoroeta Kalea, 4, 20280 Hondarribia, Gipuzkoa",43.361584,-1.793754
Charge and Parking Estación de carga,"Lugar Arranomendia, 922, 20240, SS",43.0465532,-2.1848857
Endesa Estación de carga,"Av. la Constitución, 2A, 39700 Castro Urdiales, Cantabria",43.382309899999996,-3.2176
IBIL Charging Station,"Gipuzkoa Etorb., 11 Musakola Auzoa Auzoa, 20500 Arrasate, Gipuzkoa",43.071915000000004,-2.4729509999999997
Estación Carga Vehículos,"Leizaola Lehendakariaren Kalea, 5, 48011 Bilbo, Bizkaia",43.2671375,-2.9395814
IBIL Charging Station,"Azkue Kalea, 1, 48902 Barakaldo, Bizkaia",43.290411999999996,-2.988979
Iberdrola Clientes Charging Station,"Abandoibarra Etorb., 4, 48001 Bilbo, Bizkaia",43.266743,-2.94465
Electrolinera. Estacion de carga eléctrica coche,"Etxaniz Suhiltzailearen Plaza, 48010 Bilbo, Bizkaia",43.25862070000001,-2.940371
Estación de carga eléctrica coches y motos,"Iturriondo Kalea, 8, 48940 Leioa, Bizkaia",43.317686200000004,-2.9917118
IBIL Charging Station,"Arriquíbar Plaza, 4, 48010 Bilbo, Bizkaia",43.25976,-2.937051
IBIL Charging Station,"Araba Kalea, 43b, 20800 Zarautz, Gipuzkoa",43.281403000000005,-2.16392
IBIL Charging Station,"5BIS, Maria Diaz de Haro Kalea, 48920 Portugalete",43.32241,-3.018838
IBIL Charging Station,"Albert Einstein Kalea, 25, 01510 Gasteiz, Araba",42.9112354,-2.6666336
Estación de carga eléctrica coches y motos,"Begoñako Andra Maria Kalea, 47, 48006 Bilbo, Bizkaia",43.259590100000004,-2.9143576
IBIL Charging Station,"Otaola Hiribidea, 5, 20600 Eibar, Gipuzkoa",43.182790000000004,-2.480759
Fenie Energía Estación de carga,"26330, La Rioja",42.53985000000001,-2.7785177000000005
IBIL Charging Station,"48004 Bilbao, Vizcaya",43.248309899999995,-2.905264
IBIL Charging Station,"Goiru Kalea, 1b, 20500 Arrasate, Gipuzkoa",43.062134,-2.504542
IBIL Charging Station,"N-634, 2, 48220 Abadiño, BI",43.171646,-2.6172209
Iberdrola Clientes Charging Station,"Gernika Lorategia, 25, 48003 Bilbo, Bizkaia",43.249049600000006,-2.9265357999999995
IBIL Charging Station,"GI-631, 2, 20720 Azkoitia, SS",43.17207,-2.30361
IBIL Charging Station,"Zarautz Kalea, 136, 20018 Donostia, Gipuzkoa",43.30096279999999,-2.0022566000000004
IBIL Charging Station,"Gregorio de la Revilla Zumarkalea, 54, 48009 Bilbo, Bizkaia",43.260933,-2.94057
IBIL Charging Station,"Zabalgune Plaza, 13, 48009 Bilbo, Bizkaia",43.263490000000004,-2.931105
IBIL Charging Station,"9 Kalea, Iturriondo Kalea, 48940 Leioa",43.318126899999996,-2.992554
IBIL Charging Station,"Ubitarte Plaza, 1, 20870 Elgoibar, Gipuzkoa",43.213521,-2.4167971
Iberdrola Clientes Charging Station,"GI-627, 20500 Arrasate, SS",43.048716999999996,-2.497361
IBIL Charging Station,"Arantzazuko Ama Kalea, 1, 20569 Oñati, Gipuzkoa",43.028366,-2.409438
IBIL Charging Station,"Urkixo Zumarkalea, 19, 48008 Bilbo, Bizkaia",43.25996,-2.93222
IBIL Charging Station,"Polígono Parque Tecnológico, 48170 Zamudio, BI",43.28963220000001,-2.8590636000000003
Carga de vehículos electrícos Carrefour,"48910, BI",43.300306799999994,-3.0028701
IBIL Charging Station,"Gregorio Ordoñez Kalea, 20011 Donostia, Gipuzkoa",43.305283,-1.973914
IBIL Charging Station,"Herrandarren Kalea, 17, 01003 Gasteiz, Araba",42.84850489999999,-2.6654953
Recarga eléctrica de coches y motos,"Calle Prado Viejo, 70, 26007 Logroño, La Rioja",42.45278829999999,-2.4717361
Fenie Energia Charging Station,"Lugar Laranga, 5B, 20830 Laranga Auzoa, SS",43.304343599999996,-2.3636381
IBIL Charging Station,"Erribera Etorbidea, 48903 Barakaldo, Bizkaia",43.2934494,-3.0061134
Tesla Supercharger Rivabellosa,"Pol., Industrial la Coba Poligonoa, 1303, Álava",42.7011818,-2.9194399
IBIL Charging Station,"Mikeletegi Pasealekua, 53, 20009 Donostia, Gipuzkoa",43.29163399999999,-1.9854217
Tesla Destination Charger,"Carretera nacional 1 Km 364, El Parador Kalea, 14, 01192 Argomaniz, Araba",42.8678842,-2.5415086
IBIL Charging Station,"12 Plaza Norberto Resa, 01004 Gasteiz",42.841,-2.6666
Iberdrola Clientes Charging Station,"Av. de Burgos, 49, 26006 Logroño, La Rioja",42.4615534,-2.4692679
Tesla Destination Charger,"Aientsa Auzoa, 50, 31790 Arantza, Navarre",43.18927499999999,-1.7438865000000001
